Comune;Long;Lat;Denominazione;Indirizzo;Nome Parco;Riferimenti Web;Cronologia;Tipologia;Info;Telefono;Email;Social;Ticket Intero;Ticket Ridotto;Orario;Scheda;Immagini;Note;Sheet
Catania;15.085405;37.507419;Anfiteatro;Piazza Stesicoro;Parco archeologico di Catania;http://it.wikipedia.org/wiki/Anfiteatro_romano_di_Catania;imperiale;Anfiteatro;;095/7150508;"poloregionalect@regione.sicilia.it; poloregionalect.urp.@regione.sicilia.it";;0.0;0.0;Da martedì a sabato dalle ore 9.00 alle ore 13.00 e dalle ore 14.30 alle ore 17.00. Giorni di chiusura:lunedì e domenica.;http://gis.osservatorioturistico.sicilia.it/doc/testi/schede_archeo/Catania_anfiteatro.pdf;http://gis.osservatorioturistico.sicilia.it/doc/foto/archeo/ico/Catania_anfiteatro.jpg;(parco in corso di definizione);http://gis.osservatorioturistico.sicilia.it/doc/testi/schede_archeo/Catania_anfiteatro_eng.pdf
Catania;15.082748;37.50406;Terme della Rotonda;Via della Mecca;Parco archeologico di Catania;http://it.wikipedia.org/wiki/Terme_della_Rotonda;imperiale;Terme;;095/7150508;"poloregionalect@regione.sicilia.it; poloregionalect.urp.@regione.sicilia.it";;0.0;0.0;Tutti i mercoledì e tutte le domeniche dalle ore 9.00 alle 13.00;http://gis.osservatorioturistico.sicilia.it/doc/testi/schede_archeo/Catania_rotonda.pdf;http://gis.osservatorioturistico.sicilia.it/doc/foto/archeo/ico/Catania_rotonda.jpg;(parco in corso di definizione);http://gis.osservatorioturistico.sicilia.it/doc/testi/schede_archeo/Catania_rotonda_eng.pdf
Catania;15.080725;37.503476;Domus e Balneum;Piazza Dante;Parco archeologico di Catania;http://www.regione.sicilia.it/bbccaa/Dirbenicult/musei/cartedelleareearcheologiche/areaarcheocatania.pdf pag.14-16;"ellenistica; imperiale";"Casa; Terme";;095/7150508;"poloregionalect@regione.sicilia.it; poloregionalect.urp.@regione.sicilia.it";;0.0;0.0;Sito aperto non custodito;http://gis.osservatorioturistico.sicilia.it/doc/testi/schede_archeo/Catania_domusterma.pdf;http://gis.osservatorioturistico.sicilia.it/doc/foto/archeo/ico/Catania_domusterma.jpg;(parco in corso di definizione);http://gis.osservatorioturistico.sicilia.it/doc/testi/schede_archeo/Catania_domusterma_eng.pdf
Catania;15.084138;37.503024;Teatro Romano;Via Vittorio Emanuele 260;Parco archeologico di Catania;http://it.wikipedia.org/wiki/Teatro_romano_di_Catania;"ellenistica; imperiale";Teatro;Biglietto unico Odeon e Teatro Romano;095/7150508;"poloregionalect@regione.sicilia.it; poloregionalect.urp.@regione.sicilia.it";;6.0;3.0;Da lunedì a domenica dalle ore 9.00 alle ore 17.00;http://gis.osservatorioturistico.sicilia.it/doc/testi/schede_archeo/Catania_teatroromano.pdf;http://gis.osservatorioturistico.sicilia.it/doc/foto/archeo/ico/Catania_teatroromano.jpg;(parco in corso di definizione);http://gis.osservatorioturistico.sicilia.it/doc/testi/schede_archeo/Catania_teatroromano_eng.pdf
Catania;15.085697;37.500911;Terme dell'Indirizzo;Piazza Currò;Parco archeologico di Catania;http://www.regione.sicilia.it/beniculturali/dirbenicult/database/page_musei/pagina_musei.asp?ID=151&IdSito=31;imperiale;Terme;;095/7150508;"poloregionalect@regione.sicilia.it; poloregionalect.urp.@regione.sicilia.it";;0.0;0.0;Le Terme Romane dell'Indirizzo sono visitabili su prenotazione;http://gis.osservatorioturistico.sicilia.it/doc/testi/schede_archeo/Catania_indirizzo.pdf;http://gis.osservatorioturistico.sicilia.it/doc/foto/archeo/ico/Catania_indirizzo.jpg;(parco in corso di definizione);http://gis.osservatorioturistico.sicilia.it/doc/testi/schede_archeo/Catania_indirizzo_eng.pdf
Catania;15.087453;37.50225;Terme Achilliane;Piazza Duomo sotto la Cattedrale;Parco archeologico di Catania;http://www.museodiocesanocatania.com/le_terme.aspx;imperiale;Terme;Biglietto integrato Museo Diocesiano, Terme Achilliane e Monastero dei Benedettini € 13,00;095/281635;info@museodiocesanocatania.com;;5.0;3.0;Da Lunedì a Venerdì ore 9.00 - 14.00. Martedì e Giovedì ore 15.00 - 18.00. Sabato ore 9.00 - 13.00. Domenica e Festivi su prenotazione;http://gis.osservatorioturistico.sicilia.it/doc/testi/schede_archeo/Catania_achilliane.pdf;http://gis.osservatorioturistico.sicilia.it/doc/foto/archeo/ico/Catania_achilliane.jpg;(parco in corso di definizione);http://gis.osservatorioturistico.sicilia.it/doc/testi/schede_archeo/Catania_achilliane_eng.pdf
Catania;15.079031;37.504002;Domus imperiale;Ex Convento dei Benedettini, Piazza Dante 32;Parco archeologico di Catania;http://www.monasterodeibenedettini.it/;imperiale;Casa;Biglietto integrato Museo Diocesiano, Terme Achilliane e Monastero dei Benedettini € 13,00;095 7102767 / 334 9242464;info@officineculturali.net;;7.0;Non Disponibile;"Dal lunedì alla domenica, dalle 9:00 alle 17:00; ad agosto, tutti i giorni dalle 11:00 alle 18:00. Solo visite guidate. Si consiglia la prenotazione ai numeri 095 7102767 | 334 9242464";http://gis.osservatorioturistico.sicilia.it/doc/testi/schede_archeo/Catania_domusimperiale.pdf;http://gis.osservatorioturistico.sicilia.it/doc/foto/archeo/ico/Catania_domusimperiale.jpg;(parco in corso di definizione);http://gis.osservatorioturistico.sicilia.it/doc/testi/schede_archeo/Catania_domusimperiale_eng.pdf
Catania;15.082772;37.503147;Odeon;tra Via Teatro Greco e Via Sant'Agostino, ingresso Via Vittorio Emanuele 260;Parco Archeologico di Catania;www.regione.sicilia.it/beniculturali/dirbenicult/database/page_musei/pagina_musei.asp?ID=148&IdSito=29;imperiale;Edificio pubblico civile;Biglietto unico Odeon e Teatro Romano;095/7150508;"poloregionalect@regione.sicilia.it; poloregionalect.urp.@regione.sicilia.it";;6.0;3.0;Da lunedì a domenica dalle ore 9.00 alle ore 17.00;http://gis.osservatorioturistico.sicilia.it/doc/testi/schede_archeo/Catania_teatroromano.pdf;http://gis.osservatorioturistico.sicilia.it/doc/foto/archeo/ico/Catania_odeon.jpg;;http://gis.osservatorioturistico.sicilia.it/doc/testi/schede_archeo/Catania_teatroromano_eng.pdf
Aci Catena;15.15401;37.583609;Santa Venera al Pozzo;via Alimena 7;Parco archeologico e paesaggistico della Valle dell'Aci;http://www.regione.sicilia.it/beniculturali/dirbenicult/database/page_musei/pagina_musei.asp?ID=93&IdSito=34;"classica; ellenistica; imperiale";Abitato;Il Parco comprende anche i resti di un tempietto di epoca romana a Capo Mulini e un insediamento di età greca a Valverde;095877169;urpsoprict@regione.sicilia.it;;0.0;0.0;Da lunedì a sabato dalle 9.00 alle 19.00. Prima domenica del mese dalle 9.00 alle 13.00. Altre domeniche e festivi chiusura;http://gis.osservatorioturistico.sicilia.it/doc/testi/schede_archeo/Aci_santavenera.pdf;http://gis.osservatorioturistico.sicilia.it/doc/foto/archeo/ico/Aci_santavenera.jpg;(parco in corso di definizione);http://gis.osservatorioturistico.sicilia.it/doc/testi/schede_archeo/Aci_santavenera_eng.pdf
Mineo;14.697663;37.329483;Santuario dei Palici;C.da Rocchicella;Area archeologica di Palikè;http://www.regione.sicilia.it/beniculturali/dirbenicult/database/page_musei/pagina_musei.asp?ID=38&IdSito=37;"arcaica; classica; ellenistica";Santuario;;3315771468;nan;https://www.facebook.com/Area-archeologica-di-Palik%C3%A8-172363679455109/;0.0;0.0;"Chiusa lunedi, domenica e festivi. Aperta da martedì a sabato dalle 9 alle 13.00; mercoledì dalle 9 alle alle 17.30.";http://gis.osservatorioturistico.sicilia.it/doc/testi/schede_archeo/Palike.pdf;http://gis.osservatorioturistico.sicilia.it/doc/foto/archeo/ico/Palike.jpg;;http://gis.osservatorioturistico.sicilia.it/doc/testi/schede_archeo/Palike_eng.pdf
Siracusa;15.275051;37.075713;Teatro Greco;Via del Teatro Greco;Parco archeologico di Siracusa;http://www.regione.sicilia.it/beniculturali/dirbenicult/database/page_musei/pagina_musei.asp?ID=55&IdSito=75;ellenistica;Teatro;;093166206;nan;;10.0;5.0;Tutti i giorni dalle 8,30 alle 18,30 chiusura biglietteria 17.00;http://gis.osservatorioturistico.sicilia.it/doc/testi/schede_archeo/Siracusa_teatrogreco.pdf;http://gis.osservatorioturistico.sicilia.it/doc/foto/archeo/ico/Siracusa_teatrogreco.jpg;(parco in corso di definizione);http://gis.osservatorioturistico.sicilia.it/doc/testi/schede_archeo/Siracusa_teatrogreco_eng.pdf
Siracusa;15.277237;37.074452;Ara di Ierone;Via del Teatro Greco;Parco archeologico di Siracusa;http://www.regione.sicilia.it/beniculturali/dirbenicult/database/page_musei/pagina_musei.asp?ID=55&IdSito=75;ellenistica;Altare;;093166206;nan;;10.0;5.0;Tutti i giorni dalle 8,30 alle 18,30 chiusura biglietteria 17.00;http://gis.osservatorioturistico.sicilia.it/doc/testi/schede_archeo/Siracusa_ierone.pdf;http://gis.osservatorioturistico.sicilia.it/doc/foto/archeo/ico/Siracusa_ierone.jpg;(parco in corso di definizione);http://gis.osservatorioturistico.sicilia.it/doc/testi/schede_archeo/Siracusa_ierone_eng.pdf
Siracusa;15.278888;37.074162;Anfiteatro Romano;Via del Teatro Greco;Parco archeologico di Siracusa;http://www.regione.sicilia.it/beniculturali/dirbenicult/database/page_musei/pagina_musei.asp?ID=55&IdSito=75;imperiale;Anfiteatro;;093166206;nan;;10.0;5.0;Tutti i giorni dalle 8,30 alle 18,30 chiusura biglietteria 17.00;http://gis.osservatorioturistico.sicilia.it/doc/testi/schede_archeo/Siracusa_anfiteatro.pdf;http://gis.osservatorioturistico.sicilia.it/doc/foto/archeo/ico/Siracusa_anfiteatro.jpg;(parco in corso di definizione);http://gis.osservatorioturistico.sicilia.it/doc/testi/schede_archeo/Siracusa_anfiteatro_eng.pdf
Siracusa;15.280517;37.067353;Ginnasio Romano;Via Elorina;Parco archeologico di Siracusa;http://it.wikipedia.org/wiki/Ginnasio_romano_(Siracusa);imperiale;Ginnasio;;09314508211;nan;;0.0;0.0;Temporaneamente chiuso;http://gis.osservatorioturistico.sicilia.it/doc/testi/schede_archeo/Siracusa_ginnasio.pdf;http://gis.osservatorioturistico.sicilia.it/doc/foto/archeo/ico/Siracusa_ginnasio.jpg;(parco in corso di definizione);http://gis.osservatorioturistico.sicilia.it/doc/testi/schede_archeo/Siracusa_ginnasio_eng.pdf
Siracusa;15.22082;37.091466;Castello Eurialo;Piazza Eurialo n.1;Parco archeologico di Siracusa;http://www.regione.sicilia.it/beniculturali/dirbenicult/database/page_musei/pagina_musei.asp?ID=103&IdSito=74;"classica; ellenistica";Fortificazioni;;0931711773;nan;;4.0;2.0;Lunedì 12,00 alle 16,30 chiusura biglietteria 15,45. Dal martedì al sabato dalle 8,30 alle 13,45 chiusura biglietteria 12.30 Domenica e festivi apertura dalle 9 alle 13.45 chiusura biglietteria 12.3;http://gis.osservatorioturistico.sicilia.it/doc/testi/schede_archeo/Siracusa_eurialo.pdf;http://gis.osservatorioturistico.sicilia.it/doc/foto/archeo/ico/Siracusa_eurialo.jpg;(parco in corso di definizione);http://gis.osservatorioturistico.sicilia.it/doc/testi/schede_archeo/Siracusa_eurialo_eng.pdf
Siracusa;15.292927;37.063939;Tempio di Apollo;Largo XXV Luglio;Area archeologica di Ortigia;http://www.siracusaturismo.net/scheda.asp?ID=138;arcaica;Tempio;Sito recintato, non custodito, osservabile dalla piazza;;nan;;0.0;0.0;Sito aperto non custodito;http://gis.osservatorioturistico.sicilia.it/doc/testi/schede_archeo/Ortigia_apollo.pdf;http://gis.osservatorioturistico.sicilia.it/doc/foto/archeo/ico/Ortigia_apollo.jpg;;http://gis.osservatorioturistico.sicilia.it/doc/testi/schede_archeo/Ortigia_apollo_eng.pdf
Siracusa;15.293428;37.059605;Tempio di Atena (Duomo);Piazza Duomo 4;Area archeologica di Ortigia;http://www.siracusaturismo.net/scheda.asp?ID=2;"arcaica; classica";Tempio;;;nan;;0.0;0.0;Ingresso libero;http://gis.osservatorioturistico.sicilia.it/doc/testi/schede_archeo/Ortigia_atena.pdf;http://gis.osservatorioturistico.sicilia.it/doc/foto/archeo/ico/Ortigia_atena.jpg;;http://gis.osservatorioturistico.sicilia.it/doc/testi/schede_archeo/Ortigia_atena_eng.pdf
Siracusa;15.293898;37.059859;Tempio Ionico di Minerva;Piazza Minerva;Area archeologica di Ortigia;http://www.regione.sicilia.it/beniculturali/dirbenicult/database/page_musei/pagina_musei.asp?ID=179&IdSito=73;arcaica;Tempio;;0931 450811;nan;;Non Disponibile;Non Disponibile;Chiuso al pubblico per interventi di manutenzione;http://gis.osservatorioturistico.sicilia.it/doc/testi/schede_archeo/Ortigia_minerva.pdf;http://gis.osservatorioturistico.sicilia.it/doc/foto/archeo/ico/Ortigia_ionico.jpg;;http://gis.osservatorioturistico.sicilia.it/doc/testi/schede_archeo/Ortigia_minerva_eng.pdf
Siracusa;15.257546;37.051574;Tempio di Giove Olimpio;Via Tempio di Giove;Parco archeologico di Siracusa;http://it.wikipedia.org/wiki/Tempio_di_Zeus_(Siracusa);arcaica;Tempio;;;nan;;Non Disponibile;Non Disponibile;Chiuso;http://gis.osservatorioturistico.sicilia.it/doc/testi/schede_archeo/Siracusa_giove.pdf;http://gis.osservatorioturistico.sicilia.it/doc/foto/archeo/ico/Siracusa_giove.jpg;(parco in corso di definizione);http://gis.osservatorioturistico.sicilia.it/doc/testi/schede_archeo/Siracusa_giove_eng.pdf
Palazzolo Acreide;14.894703;37.057616;Teatro;Colle dell'Acromonte - via Teatro Greco;Area archeologica di Akrai;http://www.palazzolo-acreide.it/akrai_la_zona_archeologica_di%20palazzolo_acreide/teatro_greco.htm;ellenistica;Teatro;Biglietto cumulativo con Casa Museo Uccello € 5.00 ridotto 2,50 Orari soggetti a variazioni secondo le condizioni meteorologiche;0931 876602;nan;;4.0;2.0;Dal lunedì al sabato dalle 8,30 alle 16.30, chiusura biglietteria 15,30 Festivi 8,30 alle 13,45 chiusura biglietteria 12,30;http://gis.osservatorioturistico.sicilia.it/doc/testi/schede_archeo/Akrai_teatro.pdf;http://gis.osservatorioturistico.sicilia.it/doc/foto/archeo/ico/Akrai_teatro.jpg;;http://gis.osservatorioturistico.sicilia.it/doc/testi/schede_archeo/Akrai_teatro_eng.pdf
Palazzolo Acreide;14.894375;37.057547;Bouleuterion;Colle dell'Acromonte - via Teatro Greco;Area archeologica di Akrai;http://www.palazzolo-acreide.it/akrai_la_zona_archeologica_di%20palazzolo_acreide/bouleuterion.htm;ellenistica;Edificio pubblico civile;Biglietto cumulativo con Casa Museo Uccello € 5.00 ridotto 2,50 Orari soggetti a variazioni secondo le condizioni meteorologiche;0931 876602;nan;;4.0;2.0;Dal lunedì al sabato dalle 8,30 alle 16.30, chiusura biglietteria 15,30 Festivi 8,30 alle 13,45 chiusura biglietteria 12,30;http://gis.osservatorioturistico.sicilia.it/doc/testi/schede_archeo/Akrai_bouleuterion.pdf;http://gis.osservatorioturistico.sicilia.it/doc/foto/archeo/ico/Akrai_bouleuterion.jpg;;http://gis.osservatorioturistico.sicilia.it/doc/testi/schede_archeo/Akrai_bouleuterion_eng.pdf
Palazzolo Acreide;14.895218;37.057376;Latomia dell'Intagliata e dell'Intagliatella;Colle dell'Acromonte - via Teatro Greco;Area archeologica di Akrai;http://www.palazzolo-acreide.it/akrai_la_zona_archeologica_di%20palazzolo_acreide/le_latomie.htm;"classica; ellenistica; bizantina";Santuario;Biglietto cumulativo con Casa Museo Uccello € 5.00 ridotto 2,50 Orari soggetti a variazioni secondo le condizioni meteorologiche;0931 876602;nan;;4.0;2.0;Dal lunedì al sabato dalle 8,30 alle 16.30, chiusura biglietteria 15,30 Festivi 8,30 alle 13,45 chiusura biglietteria 12,30;http://gis.osservatorioturistico.sicilia.it/doc/testi/schede_archeo/Akrai_latomia.pdf;http://gis.osservatorioturistico.sicilia.it/doc/foto/archeo/ico/Akrai_latomie.jpg;;http://gis.osservatorioturistico.sicilia.it/doc/testi/schede_archeo/Akrai_latomia_eng.pdf
Palazzolo Acreide;14.894447;37.056551;Tempio di Afrodite;Colle dell'Acromonte - via Teatro Greco;Area archeologica di Akrai;http://www.palazzolo-acreide.it/akrai_la_zona_archeologica_di%20palazzolo_acreide/tempio_di_afrodite.htm;arcaica;Tempio;Biglietto cumulativo con Casa Museo Uccello € 5.00 ridotto 2,50 Orari soggetti a variazioni secondo le condizioni meteorologiche;0931 876602;nan;;4.0;2.0;Dal lunedì al sabato dalle 8,30 alle 16.30, chiusura biglietteria 15,30 Festivi 8,30 alle 13,45 chiusura biglietteria 12,30;http://gis.osservatorioturistico.sicilia.it/doc/testi/schede_archeo/Akrai_afrodite.pdf;http://gis.osservatorioturistico.sicilia.it/doc/foto/archeo/ico/Akrai_afrodite.jpg;;http://gis.osservatorioturistico.sicilia.it/doc/testi/schede_archeo/Akrai_afrodite_eng.pdf
Palazzolo Acreide;14.900125;37.055111;Santoni;Colle Orbo - S.P. 24;Area archeologica di Akrai;http://notizie.comuni-italiani.it/foto/52147;ellenistica;Santuario;;;nan;;0.0;0.0;;http://gis.osservatorioturistico.sicilia.it/doc/testi/schede_archeo/Akrai_santoni.pdf;http://gis.osservatorioturistico.sicilia.it/doc/foto/archeo/ico/Akrai_santoni.jpg;;http://gis.osservatorioturistico.sicilia.it/doc/testi/schede_archeo/Akrai_santoni_eng.pdf
Agrigento;13.585986;37.288805;Tomba di Terone;Viale G. La Loggia;Parco archeologico e paesaggistico della Valle dei Templi;http://www.regione.sicilia.it/bbccaa/Dirbenicult/musei/cartedelleareearcheologiche/valledeitempliagrigento.pdf;imperiale;Necropoli;Ingresso gratuito a tutti per la prima domenica di ogni mese.;0922/621657/659/660/661;urp.parcoag@regione.sicilia.it;;10.0;5.0;Tutti i giorni dalle ore 8,30 alle ore 19,00 (via Sacra, Tempio di Giove), Quartiere Ellenistico Romano, Tempio di Demetra ed altre aree decentrate dalle ore 8,30 alle ore 17,00,.;http://gis.osservatorioturistico.sicilia.it/doc/testi/schede_archeo/Valletempli_terone.pdf;http://gis.osservatorioturistico.sicilia.it/doc/foto/archeo/ico/Valletempli_terone.jpg;;http://gis.osservatorioturistico.sicilia.it/doc/testi/schede_archeo/Valletempli_terone_eng.pdf
Agrigento;13.586272;37.290224;Tempio A (c.d.di Ercole);Collina dei Templi;Parco archeologico e paesaggistico della Valle dei Templi;http://www.regione.sicilia.it/bbccaa/Dirbenicult/musei/cartedelleareearcheologiche/valledeitempliagrigento.pdf;"arcaica; classica";Tempio;Ingresso gratuito a tutti per la prima domenica di ogni mese.;0922/621657/659/660/661;urp.parcoag@regione.sicilia.it;;10.0;5.0;Tutti i giorni dalle ore 8,30 alle ore 19,00 (via Sacra, Tempio di Giove), Quartiere Ellenistico Romano, Tempio di Demetra ed altre aree decentrate dalle ore 8,30 alle ore 17,00,.;http://gis.osservatorioturistico.sicilia.it/doc/testi/schede_archeo/Valletempli_ercole.pdf;http://gis.osservatorioturistico.sicilia.it/doc/foto/archeo/ico/Valletempli_ercole.jpg;;http://gis.osservatorioturistico.sicilia.it/doc/testi/schede_archeo/Valletempli_ercole_eng.pdf
Agrigento;13.581526;37.291307;Tempio I (c.d.dei Dioscuri);Collina dei Templi settore occidentale;Parco archeologico e paesaggistico della Valle dei Templi;http://www.regione.sicilia.it/bbccaa/Dirbenicult/musei/cartedelleareearcheologiche/valledeitempliagrigento.pdf;classica;Tempio;Ingresso gratuito a tutti per la prima domenica di ogni mese.;0922/621657/659/660/661;urp.parcoag@regione.sicilia.it;;10.0;5.0;Tutti i giorni dalle ore 8,30 alle ore 19,00 (via Sacra, Tempio di Giove), Quartiere Ellenistico Romano, Tempio di Demetra ed altre aree decentrate dalle ore 8,30 alle ore 17,00,.;http://gis.osservatorioturistico.sicilia.it/doc/testi/schede_archeo/Valletempli_dioscuri.pdf;http://gis.osservatorioturistico.sicilia.it/doc/foto/archeo/ico/Valletempli_dioscuri.jpg;;http://gis.osservatorioturistico.sicilia.it/doc/testi/schede_archeo/Valletempli_dioscuri_eng.pdf
Agrigento;13.581425;37.291029;Tempio L;Collina dei Templi settore occidentale;Parco archeologico e paesaggistico della Valle dei Templi;http://www.regione.sicilia.it/bbccaa/Dirbenicult/musei/cartedelleareearcheologiche/valledeitempliagrigento.pdf;classica;Tempio;Ingresso gratuito a tutti per la prima domenica di ogni mese.;0922/621657/659/660/661;urp.parcoag@regione.sicilia.it;;10.0;5.0;Tutti i giorni dalle ore 8,30 alle ore 19,00 (via Sacra, Tempio di Giove), Quartiere Ellenistico Romano, Tempio di Demetra ed altre aree decentrate dalle ore 8,30 alle ore 17,00,.;http://gis.osservatorioturistico.sicilia.it/doc/testi/schede_archeo/Valletempli_tempiol.pdf;http://gis.osservatorioturistico.sicilia.it/doc/foto/archeo/ico/Valletempli_tempiol.jpg;;http://gis.osservatorioturistico.sicilia.it/doc/testi/schede_archeo/Valletempli_tempiol_eng.pdf
Agrigento;13.581996;37.291919;Kolymbetra;Collina dei Templi settore occidentale;Parco archeologico e paesaggistico della Valle dei Templi;http://www.regione.sicilia.it/bbccaa/Dirbenicult/musei/cartedelleareearcheologiche/valledeitempliagrigento.pdf;classica;Giardino;Ingresso gratuito a tutti per la prima domenica di ogni mese.;0922/621657/659/660/661;urp.parcoag@regione.sicilia.it;;10.0;5.0;Tutti i giorni dalle ore 8,30 alle ore 19,00 (via Sacra, Tempio di Giove), Quartiere Ellenistico Romano, Tempio di Demetra ed altre aree decentrate dalle ore 8,30 alle ore 17,00,.;http://gis.osservatorioturistico.sicilia.it/doc/testi/schede_archeo/Valletempli_kolymbetra.pdf;http://gis.osservatorioturistico.sicilia.it/doc/foto/archeo/ico/Valletempli_kolymbetra.jpg;;http://gis.osservatorioturistico.sicilia.it/doc/testi/schede_archeo/Valletempli_kolymbetra_eng.pdf
Agrigento;13.584327;37.290812;Tempio B di Zeus Olimpio;Collina dei Templi settore occidentale;Parco archeologico e paesaggistico della Valle dei Templi;http://www.regione.sicilia.it/bbccaa/Dirbenicult/musei/cartedelleareearcheologiche/valledeitempliagrigento.pdf;classica;Tempio;Ingresso gratuito a tutti per la prima domenica di ogni mese.;0922/621657/659/660/661;urp.parcoag@regione.sicilia.it;;10.0;5.0;Tutti i giorni dalle ore 8,30 alle ore 19,00 (via Sacra, Tempio di Giove), Quartiere Ellenistico Romano, Tempio di Demetra ed altre aree decentrate dalle ore 8,30 alle ore 17,00,.;http://gis.osservatorioturistico.sicilia.it/doc/testi/schede_archeo/Valletempli_zeus.pdf;http://gis.osservatorioturistico.sicilia.it/doc/foto/archeo/ico/Valletempli_zeus.jpg;;http://gis.osservatorioturistico.sicilia.it/doc/testi/schede_archeo/Valletempli_zeus_eng.pdf
Agrigento;13.592079;37.289613;Tempio F (c.d. della Concordia);Collina dei Templi;Parco archeologico e paesaggistico della Valle dei Templi;http://www.regione.sicilia.it/bbccaa/Dirbenicult/musei/cartedelleareearcheologiche/valledeitempliagrigento.pdf;"classica; ellenistica; romana; medievale";Tempio;Ingresso gratuito a tutti per la prima domenica di ogni mese.;0922/621657/659/660/661;urp.parcoag@regione.sicilia.it;;10.0;5.0;Tutti i giorni dalle ore 8,30 alle ore 19,00 (via Sacra, Tempio di Giove), Quartiere Ellenistico Romano, Tempio di Demetra ed altre aree decentrate dalle ore 8,30 alle ore 17,00,.;http://gis.osservatorioturistico.sicilia.it/doc/testi/schede_archeo/Valletempli_concordia.pdf;http://gis.osservatorioturistico.sicilia.it/doc/foto/archeo/ico/Valletempli_concordia.jpg;;http://gis.osservatorioturistico.sicilia.it/doc/testi/schede_archeo/Valletempli_concordia_eng.pdf
Agrigento;13.585612;37.291047;Altare del Tempio di Zeus Olimpio;Collina dei Templi settore occidentale;Parco archeologico e paesaggistico della Valle dei Templi;http://www.regione.sicilia.it/bbccaa/Dirbenicult/musei/cartedelleareearcheologiche/valledeitempliagrigento.pdf;classica;Altare;Ingresso gratuito a tutti per la prima domenica di ogni mese.;0922/621657/659/660/661;urp.parcoag@regione.sicilia.it;;10.0;5.0;Tutti i giorni dalle ore 8,30 alle ore 19,00 (via Sacra, Tempio di Giove), Quartiere Ellenistico Romano, Tempio di Demetra ed altre aree decentrate dalle ore 8,30 alle ore 17,00,.;http://gis.osservatorioturistico.sicilia.it/doc/testi/schede_archeo/Valletempli_altarezeus.pdf;http://gis.osservatorioturistico.sicilia.it/doc/foto/archeo/ico/Valletempli_altarezeus.jpg;;http://gis.osservatorioturistico.sicilia.it/doc/testi/schede_archeo/Valletempli_altarezeus_eng.pdf
Agrigento;13.600139;37.288598;Tempio D (c.d. di Giunone);Collina dei Templi;Parco archeologico e paesaggistico della Valle dei Templi;http://www.regione.sicilia.it/bbccaa/Dirbenicult/musei/cartedelleareearcheologiche/valledeitempliagrigento.pdf;classica;Tempio;Ingresso gratuito a tutti per la prima domenica di ogni mese.;0922/621657/659/660/661;urp.parcoag@regione.sicilia.it;;10.0;5.0;Tutti i giorni dalle ore 8,30 alle ore 19,00 (via Sacra, Tempio di Giove), Quartiere Ellenistico Romano, Tempio di Demetra ed altre aree decentrate dalle ore 8,30 alle ore 17,00,.;http://gis.osservatorioturistico.sicilia.it/doc/testi/schede_archeo/Valletempli_giunone.pdf;http://gis.osservatorioturistico.sicilia.it/doc/foto/archeo/ico/Valletempli_giunone.jpg;;http://gis.osservatorioturistico.sicilia.it/doc/testi/schede_archeo/Valletempli_giunone_eng.pdf
Agrigento;13.578821;37.292908;Tempio G di Efesto;Estremità occidentale della Collina dei Templi;Parco archeologico e paesaggistico della Valle dei Templi;http://www.regione.sicilia.it/bbccaa/Dirbenicult/musei/cartedelleareearcheologiche/valledeitempliagrigento.pdf;classica;Tempio;Ingresso gratuito a tutti per la prima domenica di ogni mese.;0922/621657/659/660/661;urp.parcoag@regione.sicilia.it;;10.0;5.0;Tutti i giorni dalle ore 8,30 alle ore 19,00 (via Sacra, Tempio di Giove), Quartiere Ellenistico Romano, Tempio di Demetra ed altre aree decentrate dalle ore 8,30 alle ore 17,00,.;http://gis.osservatorioturistico.sicilia.it/doc/testi/schede_archeo/Valletempli_efesto.pdf;http://gis.osservatorioturistico.sicilia.it/doc/foto/archeo/ico/Valletempli_efesto.jpg;;http://gis.osservatorioturistico.sicilia.it/doc/testi/schede_archeo/Valletempli_efesto_eng.pdf
Agrigento;13.589629;37.282521;Tempio H di Asclepio;Piana di San Gregorio, S.S. 640;Parco archeologico e paesaggistico della Valle dei Templi;http://www.regione.sicilia.it/bbccaa/Dirbenicult/musei/cartedelleareearcheologiche/valledeitempliagrigento.pdf;"classica; ellenistica";Tempio;Ingresso gratuito a tutti per la prima domenica di ogni mese.;0922/621657/659/660/661;urp.parcoag@regione.sicilia.it;;10.0;5.0;Tutti i giorni dalle ore 8,30 alle ore 19,00 (via Sacra, Tempio di Giove), Quartiere Ellenistico Romano, Tempio di Demetra ed altre aree decentrate dalle ore 8,30 alle ore 17,00,.;http://gis.osservatorioturistico.sicilia.it/doc/testi/schede_archeo/Valletempli_asclepio.pdf;http://gis.osservatorioturistico.sicilia.it/doc/foto/archeo/ico/Valletempli_asclepio.jpg;;http://gis.osservatorioturistico.sicilia.it/doc/testi/schede_archeo/Valletempli_asclepio_eng.pdf
Agrigento;13.603329;37.299236;Tempio C di Demetra;Rupe Atenea;Parco archeologico e paesaggistico della Valle dei Templi;http://www.regione.sicilia.it/bbccaa/Dirbenicult/musei/cartedelleareearcheologiche/valledeitempliagrigento.pdf;classica;Tempio;Ingresso gratuito a tutti per la prima domenica di ogni mese.;0922/621657/659/660/661;urp.parcoag@regione.sicilia.it;;10.0;5.0;Tutti i giorni dalle ore 8,30 alle ore 19,00 (via Sacra, Tempio di Giove), Quartiere Ellenistico Romano, Tempio di Demetra ed altre aree decentrate dalle ore 8,30 alle ore 17,00,.;http://gis.osservatorioturistico.sicilia.it/doc/testi/schede_archeo/Valletempli_demetra.pdf;http://gis.osservatorioturistico.sicilia.it/doc/foto/archeo/ico/Valletempli_demetra.jpg;;http://gis.osservatorioturistico.sicilia.it/doc/testi/schede_archeo/Valletempli_demetra_eng.pdf
Agrigento;13.577922;37.312869;Tempio E (di Atena?);Via Santa Maria dei Greci;Centro urbano;http://www.regione.sicilia.it/bbccaa/Dirbenicult/musei/cartedelleareearcheologiche/valledeitempliagrigento.pdf;classica;Tempio;;;nan;;0.0;0.0;;http://gis.osservatorioturistico.sicilia.it/doc/testi/schede_archeo/Agrigento_tempioe.pdf;http://gis.osservatorioturistico.sicilia.it/doc/foto/archeo/ico/Agrigento_tempioe.jpg;;http://gis.osservatorioturistico.sicilia.it/doc/testi/schede_archeo/Agrigento_tempioe_eng.pdf
Agrigento;13.58908;37.297451;Bouleuterion/Odeion;Poggio San Nicola, via Passeggiata archeologica;Parco archeologico e paesaggistico della Valle dei Templi;http://www.regione.sicilia.it/bbccaa/Dirbenicult/musei/cartedelleareearcheologiche/valledeitempliagrigento.pdf;"classica; ellenistica";Edificio pubblico civile;Ingresso gratuito a tutti per la prima domenica di ogni mese.;0922/621657/659/660/661;urp.parcoag@regione.sicilia.it;;10.0;5.0;Tutti i giorni dalle ore 8,30 alle ore 19,00 (via Sacra, Tempio di Giove), Quartiere Ellenistico Romano, Tempio di Demetra ed altre aree decentrate dalle ore 8,30 alle ore 17,00,.;http://gis.osservatorioturistico.sicilia.it/doc/testi/schede_archeo/Valletempli_bouleuterion.pdf;http://gis.osservatorioturistico.sicilia.it/doc/foto/archeo/ico/Valletempli_bouleuterion.jpg;;http://gis.osservatorioturistico.sicilia.it/doc/testi/schede_archeo/Valletempli_bouleuterion_eng.pdf
Agrigento;13.589218;37.298252;Foro romano;Poggio San Nicola, via Passeggiata archeologica;Parco archeologico e paesaggistico della Valle dei Templi;http://www.regione.sicilia.it/bbccaa/Dirbenicult/musei/cartedelleareearcheologiche/valledeitempliagrigento.pdf;"ellenistica; romana; tardo antica";Area pubblica civile;Ingresso gratuito a tutti per la prima domenica di ogni mese.;0922/621657/659/660/661;urp.parcoag@regione.sicilia.it;;10.0;5.0;Tutti i giorni dalle ore 8,30 alle ore 19,00 (via Sacra, Tempio di Giove), Quartiere Ellenistico Romano, Tempio di Demetra ed altre aree decentrate dalle ore 8,30 alle ore 17,00,.;http://gis.osservatorioturistico.sicilia.it/doc/testi/schede_archeo/Valletempli_foro.pdf;http://gis.osservatorioturistico.sicilia.it/doc/foto/archeo/ico/Valletempli_iside.jpg;;http://gis.osservatorioturistico.sicilia.it/doc/testi/schede_archeo/Valletempli_foro_eng.pdf
Agrigento;13.591786;37.297523;Quartiere Ellenistico Romano;Via Passeggiata archeologica;Parco archeologico e paesaggistico della Valle dei Templi;http://www.regione.sicilia.it/bbccaa/Dirbenicult/musei/cartedelleareearcheologiche/valledeitempliagrigento.pdf;"ellenistica; romana";Abitato;Ingresso gratuito a tutti per la prima domenica di ogni mese.;0922/621657/659/660/661;urp.parcoag@regione.sicilia.it;;10.0;5.0;Tutti i giorni dalle ore 8,30 alle ore 19,00 (via Sacra, Tempio di Giove), Quartiere Ellenistico Romano, Tempio di Demetra ed altre aree decentrate dalle ore 8,30 alle ore 17,00,.;http://gis.osservatorioturistico.sicilia.it/doc/testi/schede_archeo/Valletempli_quartiere.pdf;http://gis.osservatorioturistico.sicilia.it/doc/foto/archeo/ico/Valletempli_quartiere.jpg;;http://gis.osservatorioturistico.sicilia.it/doc/testi/schede_archeo/Valletempli_quartiere_eng.pdf
Agrigento;13.588836;37.296508;Ekklesiasterion;Poggio San Nicola, via Passeggiata archeologica;Parco archeologico e paesaggistico della Valle dei Templi;http://www.regione.sicilia.it/bbccaa/Dirbenicult/musei/cartedelleareearcheologiche/valledeitempliagrigento.pdf;"classica; ellenistica";Edificio pubblico civile;Ingresso gratuito a tutti per la prima domenica di ogni mese.;0922/621657/659/660/661;urp.parcoag@regione.sicilia.it;;10.0;5.0;Tutti i giorni dalle ore 8,30 alle ore 19,00 (via Sacra, Tempio di Giove), Quartiere Ellenistico Romano, Tempio di Demetra ed altre aree decentrate dalle ore 8,30 alle ore 17,00,.;http://gis.osservatorioturistico.sicilia.it/doc/testi/schede_archeo/Valletempli_ekklesiasterion.pdf;http://gis.osservatorioturistico.sicilia.it/doc/foto/archeo/ico/Valletempli_ekklesiasterion.jpg;;http://gis.osservatorioturistico.sicilia.it/doc/testi/schede_archeo/Valletempli_ekklesiasterion_eng.pdf
Agrigento;13.588538;37.296633;Oratorio di Falaride;Poggio San Nicola, via Passeggiata archeologica;Parco archeologico e paesaggistico della Valle dei Templi;http://www.regione.sicilia.it/bbccaa/Dirbenicult/musei/cartedelleareearcheologiche/valledeitempliagrigento.pdf;"ellenistica; romana; medievale";Tempio;Ingresso gratuito a tutti per la prima domenica di ogni mese.;0922/621657/659/660/661;urp.parcoag@regione.sicilia.it;;10.0;5.0;Tutti i giorni dalle ore 8,30 alle ore 19,00 (via Sacra, Tempio di Giove), Quartiere Ellenistico Romano, Tempio di Demetra ed altre aree decentrate dalle ore 8,30 alle ore 17,00,.;http://gis.osservatorioturistico.sicilia.it/doc/testi/schede_archeo/Valletempli_falaride.pdf;http://gis.osservatorioturistico.sicilia.it/doc/foto/archeo/ico/Valletempli_falaride.jpg;;http://gis.osservatorioturistico.sicilia.it/doc/testi/schede_archeo/Valletempli_falaride_eng.pdf
Agrigento;13.581328;37.291557;Santuario divinità ctonie;Collina dei Templi settore occidentale;Parco archeologico e paesaggistico della Valle dei Templi;http://www.regione.sicilia.it/bbccaa/Dirbenicult/musei/cartedelleareearcheologiche/valledeitempliagrigento.pdf;"arcaica; classica; ellenistica";Santuario;Ingresso gratuito a tutti per la prima domenica di ogni mese.;0922/621657/659/660/661;urp.parcoag@regione.sicilia.it;;10.0;5.0;Tutti i giorni dalle ore 8,30 alle ore 19,00 (via Sacra, Tempio di Giove), Quartiere Ellenistico Romano, Tempio di Demetra ed altre aree decentrate dalle ore 8,30 alle ore 17,00,.;http://gis.osservatorioturistico.sicilia.it/doc/testi/schede_archeo/Valletempli_ctonie.pdf;http://gis.osservatorioturistico.sicilia.it/doc/foto/archeo/ico/Valletempli_ctonie.jpg;;http://gis.osservatorioturistico.sicilia.it/doc/testi/schede_archeo/Valletempli_ctonie_eng.pdf
Agrigento;13.604259;37.297263;Santuario rupestre;Rupe Atenea;Parco archeologico e paesaggistico della Valle dei Templi;http://www.regione.sicilia.it/bbccaa/Dirbenicult/musei/cartedelleareearcheologiche/valledeitempliagrigento.pdf;"arcaica; classica; ellenistica";Santuario;Ingresso gratuito a tutti per la prima domenica di ogni mese.;0922/621657/659/660/661;urp.parcoag@regione.sicilia.it;;10.0;5.0;Tutti i giorni dalle ore 8,30 alle ore 19,00 (via Sacra, Tempio di Giove), Quartiere Ellenistico Romano, Tempio di Demetra ed altre aree decentrate dalle ore 8,30 alle ore 17,00,.;http://gis.osservatorioturistico.sicilia.it/doc/testi/schede_archeo/Valletempli_santuariorupestre.pdf;http://gis.osservatorioturistico.sicilia.it/doc/foto/archeo/ico/Valletempli_santuariorupestre.jpg;;http://gis.osservatorioturistico.sicilia.it/doc/testi/schede_archeo/Valletempli_santuariorupestre_eng.pdf
Agrigento;13.601869;37.297373;Mura;Rupe Atenea;Parco archeologico e paesaggistico della Valle dei Templi;http://www.regione.sicilia.it/bbccaa/Dirbenicult/musei/cartedelleareearcheologiche/valledeitempliagrigento.pdf;"arcaica; classica; ellenistica";Fortificazioni;Ingresso gratuito a tutti per la prima domenica di ogni mese.;0922/621657/659/660/661;urp.parcoag@regione.sicilia.it;;10.0;5.0;Tutti i giorni dalle ore 8,30 alle ore 19,00 (via Sacra, Tempio di Giove), Quartiere Ellenistico Romano, Tempio di Demetra ed altre aree decentrate dalle ore 8,30 alle ore 17,00,.;http://gis.osservatorioturistico.sicilia.it/doc/testi/schede_archeo/Valletempli_mura.pdf;http://gis.osservatorioturistico.sicilia.it/doc/foto/archeo/ico/Valletempli_mura.jpg;;http://gis.osservatorioturistico.sicilia.it/doc/testi/schede_archeo/Valletempli_mura_eng.pdf
Agrigento;13.590352;37.296302;Teatro;Via Passeggiata archeologica;Parco archeologico e paesaggistico della Valle dei Templi;http://www.regione.sicilia.it/bbccaa/Dirbenicult/musei/cartedelleareearcheologiche/valledeitempliagrigento.pdf;ellenistica;Teatro;Ingresso gratuito a tutti per la prima domenica di ogni mese.;0922/621657/659/660/661;urp.parcoag@regione.sicilia.it;;0.0;0.0;"Visite guidate agli scavi; giorni e orari da definire";http://gis.osservatorioturistico.sicilia.it/doc/testi/schede_archeo/Valletempli_teatro.pdf;http://gis.osservatorioturistico.sicilia.it/doc/foto/archeo/ico/Valletempli_teatro.jpg;;http://gis.osservatorioturistico.sicilia.it/doc/testi/schede_archeo/Valletempli_teatro_eng.pdf
Agrigento;13.586672;37.293474;Ginnasio;Via Passeggiata archeologica;Parco archeologico e paesaggistico della Valle dei Templi;http://www.regione.sicilia.it/bbccaa/Dirbenicult/musei/cartedelleareearcheologiche/valledeitempliagrigento.pdf;"classica; ellenistica; imperiale";Ginnasio;Ingresso gratuito a tutti per la prima domenica di ogni mese.;0922/621657/659/660/661;urp.parcoag@regione.sicilia.it;;10.0;5.0;Tutti i giorni dalle ore 8,30 alle ore 19,00 (via Sacra, Tempio di Giove), Quartiere Ellenistico Romano, Tempio di Demetra ed altre aree decentrate dalle ore 8,30 alle ore 17,00,.;http://gis.osservatorioturistico.sicilia.it/doc/testi/schede_archeo/Valletempli_ginnasio.pdf;http://gis.osservatorioturistico.sicilia.it/doc/foto/archeo/ico/Valletempli_ginnasio.jpg;;http://gis.osservatorioturistico.sicilia.it/doc/testi/schede_archeo/Valletempli_ginnasio_eng.pdf
Termini Imerese;13.824059;37.973966;Tempio della Vittoria;C.da Buonfornello, S.S. 113 - Km 206;Parco archeologico di Himera;http://www.regione.sicilia.it/beniculturali/dirbenicult/database/page_musei/pagina_musei.asp?ID=50&IdSito=65;classica;Tempio;La prima domenica del mese ingresso gratuito. Lunedì chiusura. La biglietteria chiude trenta minuti prima dell'uscita.;0918140128 - 0918140906;poloarcheologico.pa.uo5@regione.sicilia.it;https://it-it.facebook.com/Parco-di-Himera-Polo-regionale-di-Palermo-per-i-Parchi-e-Musei-Archeologici-192136660918244/;4.0;2.0;Da martedì a sabato 9,30-13,30 14,30-18,30, domenica e festivi 9,30-13,30;http://gis.osservatorioturistico.sicilia.it/doc/testi/schede_archeo/Himera_vittoria.pdf;http://gis.osservatorioturistico.sicilia.it/doc/foto/archeo/ico/Himera_vittoria.jpg;;http://gis.osservatorioturistico.sicilia.it/doc/testi/schede_archeo/Himera_vittoria_eng.pdf
Termini Imerese;13.82322;37.971013;Santuario di Atena;C.da Buonfornello, S.S. 113 - Km 206;Parco archeologico di Himera;http://www.regione.sicilia.it/beniculturali/dirbenicult/database/page_musei/pagina_musei.asp?ID=50&IdSito=65;"arcaica; classica";Santuario;La prima domenica del mese ingresso gratuito. Lunedì chiusura. La biglietteria chiude trenta minuti prima dell'uscita.;0918140128 - 0918140906;poloarcheologico.pa.uo5@regione.sicilia.it;https://it-it.facebook.com/Parco-di-Himera-Polo-regionale-di-Palermo-per-i-Parchi-e-Musei-Archeologici-192136660918244/;4.0;2.0;Da martedì a sabato 9,30-13,30 14,30-18,30, domenica e festivi 9,30-13,30;http://gis.osservatorioturistico.sicilia.it/doc/testi/schede_archeo/Himera_atena.pdf;http://gis.osservatorioturistico.sicilia.it/doc/foto/archeo/ico/Himera_atena.jpg;;http://gis.osservatorioturistico.sicilia.it/doc/testi/schede_archeo/Himera_atena_eng.pdf
Termini Imerese;13.821105;37.970385;Città alta - Abitato;C.da Buonfornello, S.S. 113 - Km 206;Parco archeologico di Himera;http://www.regione.sicilia.it/beniculturali/dirbenicult/database/page_musei/pagina_musei.asp?ID=50&IdSito=65;"arcaica; classica";Abitato;La prima domenica del mese ingresso gratuito. Lunedì chiusura. La biglietteria chiude trenta minuti prima dell'uscita.;0918140128 - 0918140906;poloarcheologico.pa.uo5@regione.sicilia.it;https://it-it.facebook.com/Parco-di-Himera-Polo-regionale-di-Palermo-per-i-Parchi-e-Musei-Archeologici-192136660918244/;4.0;2.0;Da martedì a sabato 9,30-13,30 14,30-18,30, domenica e festivi 9,30-13,30;http://gis.osservatorioturistico.sicilia.it/doc/testi/schede_archeo/Himera_abitato.pdf;http://gis.osservatorioturistico.sicilia.it/doc/foto/archeo/ico/Himera_abitato.jpg;;http://gis.osservatorioturistico.sicilia.it/doc/testi/schede_archeo/Himera_abitato_eng.pdf
Termini Imerese;13.81872;37.97127;Città bassa - Quartiere Cancila;C.da Buonfornello, S.S. 113 - Km 206;Parco archeologico di Himera;http://www.regione.sicilia.it/beniculturali/dirbenicult/database/page_musei/pagina_musei.asp?ID=50&IdSito=65;"arcaica; classica";Abitato;La prima domenica del mese ingresso gratuito. Lunedì chiusura. La biglietteria chiude trenta minuti prima dell'uscita.;0918140128 - 0918140906;poloarcheologico.pa.uo5@regione.sicilia.it;https://it-it.facebook.com/Parco-di-Himera-Polo-regionale-di-Palermo-per-i-Parchi-e-Musei-Archeologici-192136660918244/;4.0;2.0;Da martedì a sabato 9,30-13,30 14,30-18,30, domenica e festivi 9,30-13,30;http://gis.osservatorioturistico.sicilia.it/doc/testi/schede_archeo/Himera_cancila.pdf;http://gis.osservatorioturistico.sicilia.it/doc/foto/archeo/ico/Himera_cancila.jpg;;http://gis.osservatorioturistico.sicilia.it/doc/testi/schede_archeo/Himera_cancila_eng.pdf
Termini Imerese;13.69385;37.987784;Anfiteatro;Via Anfiteatro - Piano Barlaci;Area archeologica di Termini Imerese;http://www.prolocotermini.it/index.php?option=com_content&view=article&id=111:anfiteatro-romano&catid=82:monumenti&Itemid=435;imperiale;Anfiteatro;;;nan;;0.0;0.0;;http://gis.osservatorioturistico.sicilia.it/doc/testi/schede_archeo/Termini_anfiteatro.pdf;http://gis.osservatorioturistico.sicilia.it/doc/foto/archeo/ico/Termini_anfiteatro.jpg;;http://gis.osservatorioturistico.sicilia.it/doc/testi/schede_archeo/Termini_anfiteatro_eng.pdf
Termini Imerese;13.693206;37.987659;Curia;Villa Niccolò Palmeri, via Enrico Iannelli;Area archeologica di Termini Imerese;http://www.prolocotermini.it/index.php?option=com_content&view=article&id=142:villa-comunale-palmeri&catid=91:luoghi-di-interesse&Itemid=630;imperiale;Edificio pubblico civile;;;nan;;0.0;0.0;Tutti i giorni;http://gis.osservatorioturistico.sicilia.it/doc/testi/schede_archeo/Termini_curia.pdf;http://gis.osservatorioturistico.sicilia.it/doc/foto/archeo/ico/Termini_curia.jpg;;http://gis.osservatorioturistico.sicilia.it/doc/testi/schede_archeo/Termini_curia_eng.pdf
Termini Imerese;13.685197;37.970343;Acquedotto Cornelio;C.da Figurella;Area archeologica di Termini Imerese;http://www.prolocotermini.it/index.php?option=com_content&view=article&id=85:acquedotto-romano-cornelio&catid=82:monumenti&Itemid=630;imperiale;Acquedotto;;;nan;;0.0;0.0;;http://gis.osservatorioturistico.sicilia.it/doc/testi/schede_archeo/Termini_cornelio.pdf;http://gis.osservatorioturistico.sicilia.it/doc/foto/archeo/ico/Termini_cornelio.jpg;;http://gis.osservatorioturistico.sicilia.it/doc/testi/schede_archeo/Termini_cornelio_eng.pdf
Termini Imerese;13.69747;37.98786;Abitato;Centro storico;Area archeologica di Termini Imerese;;imperiale;Abitato;;;nan;;Non Disponibile;Non Disponibile;;http://gis.osservatorioturistico.sicilia.it/doc/testi/schede_archeo/Termini.pdf;http://gis.osservatorioturistico.sicilia.it/doc/foto/archeo/ico/Termini.jpg;;http://gis.osservatorioturistico.sicilia.it/doc/testi/schede_archeo/Termini_eng.pdf
Santa Flavia;13.531488;38.092613;Cd. Ginnasio;Località Solunto, Via Collegio Romano;Parco archeologico di Solunto;http://www.regione.sicilia.it/beniculturali/dirbenicult/database/page_musei/pagina_musei.asp?ID=51&IdSito=62;"ellenistica; imperiale";Casa;La prima domenica del mese ingresso gratuito. Ultimo ingresso sempre un'ora prima della chiusura.;3387845140 - 091909339 - 091905043;poloarcheologico.pa.uo5@regione.sicilia.it, urp.parco.archeo.solunto @ regione.sicilia.it;https://www.facebook.com/pg/parco.di.solunto/about/?ref=page_internal;4.0;2.0;Orario invernale: 9,00 - 18,00. Orario estivo: 9,00 - 19,30. Domenica e festivi 9,00 - 13,30;http://gis.osservatorioturistico.sicilia.it/doc/testi/schede_archeo/Solunto_ginnasio.pdf;http://gis.osservatorioturistico.sicilia.it/doc/foto/archeo/ico/Solunto_ginnasio.jpg;;http://gis.osservatorioturistico.sicilia.it/doc/testi/schede_archeo/Solunto_ginnasio_eng.pdf
Santa Flavia;13.531679;38.09301;Casa di Leda;Località Solunto, Via Collegio Romano;Parco archeologico di Solunto;http://www.regione.sicilia.it/beniculturali/dirbenicult/database/page_musei/pagina_musei.asp?ID=51&IdSito=62;"ellenistica; imperiale";Casa;La prima domenica del mese ingresso gratuito. Ultimo ingresso sempre un'ora prima della chiusura.;3387845140 - 091909339 - 091905043;poloarcheologico.pa.uo5@regione.sicilia.it, urp.parco.archeo.solunto @ regione.sicilia.it;https://www.facebook.com/pg/parco.di.solunto/about/?ref=page_internal;4.0;2.0;Orario invernale: 9,00 - 18,00. Orario estivo: 9,00 - 19,30. Domenica e festivi 9,00 - 13,30;http://gis.osservatorioturistico.sicilia.it/doc/testi/schede_archeo/Solunto_leda.pdf;http://gis.osservatorioturistico.sicilia.it/doc/foto/archeo/ico/Solunto_leda.jpg;;http://gis.osservatorioturistico.sicilia.it/doc/testi/schede_archeo/Solunto_leda_eng.pdf
Santa Flavia;13.532243;38.094597;Casa delle Ghirlande;Località Solunto, Via Collegio Romano;Parco archeologico di Solunto;http://www.regione.sicilia.it/beniculturali/dirbenicult/database/page_musei/pagina_musei.asp?ID=51&IdSito=62;"ellenistica; imperiale";Casa;La prima domenica del mese ingresso gratuito. Ultimo ingresso sempre un'ora prima della chiusura.;3387845140 - 091909339 - 091905043;poloarcheologico.pa.uo5@regione.sicilia.it, urp.parco.archeo.solunto @ regione.sicilia.it;https://www.facebook.com/pg/parco.di.solunto/about/?ref=page_internal;4.0;2.0;Orario invernale: 9,00 - 18,00. Orario estivo: 9,00 - 19,30. Domenica e festivi 9,00 - 13,30;http://gis.osservatorioturistico.sicilia.it/doc/testi/schede_archeo/Solunto_ghirlande.pdf;http://gis.osservatorioturistico.sicilia.it/doc/foto/archeo/ico/Solunto_ghirlande.jpg;;http://gis.osservatorioturistico.sicilia.it/doc/testi/schede_archeo/Solunto_ghirlande_eng.pdf
Santa Flavia;13.530421;38.093386;Casa delle Maschere;Località Solunto, Via Collegio Romano;Parco archeologico di Solunto;http://www.regione.sicilia.it/beniculturali/dirbenicult/database/page_musei/pagina_musei.asp?ID=51&IdSito=62;"ellenistica; imperiale";Casa;La prima domenica del mese ingresso gratuito. Ultimo ingresso sempre un'ora prima della chiusura.;3387845140 - 091909339 - 091905043;poloarcheologico.pa.uo5@regione.sicilia.it, urp.parco.archeo.solunto @ regione.sicilia.it;https://www.facebook.com/pg/parco.di.solunto/about/?ref=page_internal;4.0;2.0;Orario invernale: 9,00 - 18,00. Orario estivo: 9,00 - 19,30. Domenica e festivi 9,00 - 13,30;http://gis.osservatorioturistico.sicilia.it/doc/testi/schede_archeo/Solunto_maschere.pdf;http://gis.osservatorioturistico.sicilia.it/doc/foto/archeo/ico/Solunto_maschere.jpg;;http://gis.osservatorioturistico.sicilia.it/doc/testi/schede_archeo/Solunto_maschere_eng.pdf
Santa Flavia;13.531301;38.092887;Casa di Arpocrate;Località Solunto, Via Collegio Romano;Parco archeologico di Solunto;http://www.regione.sicilia.it/beniculturali/dirbenicult/database/page_musei/pagina_musei.asp?ID=51&IdSito=62;"ellenistica; imperiale";Casa;La prima domenica del mese ingresso gratuito. Ultimo ingresso sempre un'ora prima della chiusura.;3387845140 - 091909339 - 091905043;poloarcheologico.pa.uo5@regione.sicilia.it, urp.parco.archeo.solunto @ regione.sicilia.it;https://www.facebook.com/pg/parco.di.solunto/about/?ref=page_internal;4.0;2.0;Orario invernale: 9,00 - 18,00. Orario estivo: 9,00 - 19,30. Domenica e festivi 9,00 - 13,30;http://gis.osservatorioturistico.sicilia.it/doc/testi/schede_archeo/Solunto_arpocrate.pdf;http://gis.osservatorioturistico.sicilia.it/doc/foto/archeo/ico/Solunto_arpocrate.jpg;;http://gis.osservatorioturistico.sicilia.it/doc/testi/schede_archeo/Solunto_arpocrate_eng.pdf
Santa Flavia;13.531947;38.094167;Teatro;Località Solunto, Via Collegio Romano;Parco archeologico di Solunto;http://www.regione.sicilia.it/beniculturali/dirbenicult/database/page_musei/pagina_musei.asp?ID=51&IdSito=62;"ellenistica; imperiale";Teatro;La prima domenica del mese ingresso gratuito. Ultimo ingresso sempre un'ora prima della chiusura.;3387845140 - 091909339 - 091905043;poloarcheologico.pa.uo5@regione.sicilia.it, urp.parco.archeo.solunto @ regione.sicilia.it;https://www.facebook.com/pg/parco.di.solunto/about/?ref=page_internal;4.0;2.0;Orario invernale: 9,00 - 18,00. Orario estivo: 9,00 - 19,30. Domenica e festivi 9,00 - 13,30;http://gis.osservatorioturistico.sicilia.it/doc/testi/schede_archeo/Solunto_teatro.pdf;http://gis.osservatorioturistico.sicilia.it/doc/foto/archeo/ico/Solunto_teatro.jpg;;http://gis.osservatorioturistico.sicilia.it/doc/testi/schede_archeo/Solunto_teatro_eng.pdf
Santa Flavia;13.531979;38.093301;Edificio sacro con altare a tre betili;Località Solunto;Parco archeologico di Solunto;http://www.regione.sicilia.it/beniculturali/dirbenicult/database/page_musei/pagina_musei.asp?ID=51&IdSito=62;ellenistica;Santuario;La prima domenica del mese ingresso gratuito. Ultimo ingresso sempre un'ora prima della chiusura.;3387845140 - 091909339 - 091905043;poloarcheologico.pa.uo5@regione.sicilia.it, urp.parco.archeo.solunto @ regione.sicilia.it;https://www.facebook.com/pg/parco.di.solunto/about/?ref=page_internal;4.0;2.0;Orario invernale: 9,00 - 18,00. Orario estivo: 9,00 - 19,30. Domenica e festivi 9,00 - 13,30;http://gis.osservatorioturistico.sicilia.it/doc/testi/schede_archeo/Solunto_areasacra.pdf;http://gis.osservatorioturistico.sicilia.it/doc/foto/archeo/ico/Solunto_areasacra.jpg;;http://gis.osservatorioturistico.sicilia.it/doc/testi/schede_archeo/Solunto_areasacra_eng.pdf
Santa Flavia;13.531535;38.093942;Edifici sacri a due navate;Località Solunto;Parco archeologico di Solunto;http://www.regione.sicilia.it/beniculturali/dirbenicult/database/page_musei/pagina_musei.asp?ID=51&IdSito=62;ellenistica;Santuario;La prima domenica del mese ingresso gratuito. Ultimo ingresso sempre un'ora prima della chiusura.;3387845140 - 091909339 - 091905043;poloarcheologico.pa.uo5@regione.sicilia.it, urp.parco.archeo.solunto @ regione.sicilia.it;https://www.facebook.com/pg/parco.di.solunto/about/?ref=page_internal;4.0;2.0;Orario invernale: 9,00 - 18,00. Orario estivo: 9,00 - 19,30. Domenica e festivi 9,00 - 13,30;http://gis.osservatorioturistico.sicilia.it/doc/testi/schede_archeo/Solunto_edifici2navate.pdf;http://gis.osservatorioturistico.sicilia.it/doc/foto/archeo/ico/Solunto_edifici2navate.jpg;;http://gis.osservatorioturistico.sicilia.it/doc/testi/schede_archeo/Solunto_edifici2navate_eng.pdf
Santa Flavia;13.532169;38.093982;Agorà;Località Solunto;Parco archeologico di Solunto;http://www.regione.sicilia.it/beniculturali/dirbenicult/database/page_musei/pagina_musei.asp?ID=51&IdSito=62;ellenistica;Area pubblica civile;La prima domenica del mese ingresso gratuito. Ultimo ingresso sempre un'ora prima della chiusura.;3387845140 - 091909339 - 091905043;poloarcheologico.pa.uo5@regione.sicilia.it, urp.parco.archeo.solunto @ regione.sicilia.it;https://www.facebook.com/pg/parco.di.solunto/about/?ref=page_internal;4.0;2.0;Orario invernale: 9,00 - 18,00. Orario estivo: 9,00 - 19,30. Domenica e festivi 9,00 - 13,30;http://gis.osservatorioturistico.sicilia.it/doc/testi/schede_archeo/Solunto_agora.pdf;http://gis.osservatorioturistico.sicilia.it/doc/foto/archeo/ico/Solunto_agora.jpg;;http://gis.osservatorioturistico.sicilia.it/doc/testi/schede_archeo/Solunto_agora_eng.pdf
Santa Flavia;13.531219;38.093191;Casa del cerchio mosaico;Località Solunto;Parco archeologico di Solunto;http://www.regione.sicilia.it/beniculturali/dirbenicult/database/page_musei/pagina_musei.asp?ID=51&IdSito=62;"ellenistica; imperiale";Casa;La prima domenica del mese ingresso gratuito. Ultimo ingresso sempre un'ora prima della chiusura.;;poloarcheologico.pa.uo5@regione.sicilia.it, urp.parco.archeo.solunto @ regione.sicilia.it;https://www.facebook.com/pg/parco.di.solunto/about/?ref=page_internal;4.0;2.0;Orario invernale: 9,00 - 18,00. Orario estivo: 9,00 - 19,30. Domenica e festivi 9,00 - 13,30;http://gis.osservatorioturistico.sicilia.it/doc/testi/schede_archeo/Solunto_cerchiomosaico.pdf;http://gis.osservatorioturistico.sicilia.it/doc/foto/archeo/ico/Solunto_cerchiomosaico.jpg;;http://gis.osservatorioturistico.sicilia.it/doc/testi/schede_archeo/Solunto_cerchiomosaico_eng.pdf
Santa Flavia;13.531565;38.080427;Necropoli;Via Consolare;Parco archeologico di Solunto;http://www.comune.santaflavia.pa.it/index.php?option=com_content&task=view&id=27&Itemid=35;"arcaica; classica; ellenistica";Necropoli;Visitabile su richiesta;3387845140 - 091909339 - 091905043;poloarcheologico.pa.uo5@regione.sicilia.it, urp.parco.archeo.solunto @ regione.sicilia.it;https://www.facebook.com/pg/parco.di.solunto/about/?ref=page_internal;Non Disponibile;Non Disponibile;;http://gis.osservatorioturistico.sicilia.it/doc/testi/schede_archeo/Solunto_necropoli.pdf;http://gis.osservatorioturistico.sicilia.it/doc/foto/archeo/ico/Solunto_necropoli.jpg;;http://gis.osservatorioturistico.sicilia.it/doc/testi/schede_archeo/Solunto_necropoli_eng.pdf
Palermo;13.355695;38.112287;Case Romane;Piazza della Vittoria - Villa Bonanno;Area archeologica di Villa Bonanno;http://www.regione.sicilia.it/beniculturali/dirbenicult/database/page_musei/pagina_musei.asp?ID=172&IdSito=60;"ellenistica; imperiale";Casa;;091 7071317/411;nan;;0.0;0.0;Visitabile su prenotazione;http://gis.osservatorioturistico.sicilia.it/doc/testi/schede_archeo/Palermo_villabonanno.pdf;http://gis.osservatorioturistico.sicilia.it/doc/foto/archeo/ico/Palermo_villabonanno.jpg;;http://gis.osservatorioturistico.sicilia.it/doc/testi/schede_archeo/Palermo_villabonanno_eng.pdf
Palermo;13.366571;38.122708;Castello a Mare;Via Crispi - ingresso via Patti;Area monumentale archeologica di Castello a Mare;http://www.regione.sicilia.it/beniculturali/dirbenicult/database/page_musei/pagina_musei.asp?ID=92&IdSito=59;medievale;Fortificazioni;;0917071317/411;nan;;2.0;1.0;Da martedì a domenica, compresi i festivi, dalle 9.30 alle 13.30;http://gis.osservatorioturistico.sicilia.it/doc/testi/schede_archeo/Palermo_castellomare.pdf;http://gis.osservatorioturistico.sicilia.it/doc/foto/archeo/ico/Palermo_castellomare.jpg;;http://gis.osservatorioturistico.sicilia.it/doc/testi/schede_archeo/Palermo_castellomare_eng.pdf
Palermo;13.345;38.108738;Necropoli Punica;Corso Calatafimi 90;Centro urbano;http://www.regione.sicilia.it/beniculturali/dirbenicult/database/page_musei/pagina_musei.asp?ID=47&IdSito=57;"arcaica; classica; ellenistica";Necropoli;;0917071425 - 091590;nan;;2.0;1.0;La Necropoli punica è aperta da martedì a sabato (9.30-13.30 e 14.30-17.30). Domeniche e festivi 9.30-13.30;http://gis.osservatorioturistico.sicilia.it/doc/testi/schede_archeo/Palermo_necropoli.pdf;http://gis.osservatorioturistico.sicilia.it/doc/foto/archeo/ico/Palermo_necropolipunica.jpg;;http://gis.osservatorioturistico.sicilia.it/doc/testi/schede_archeo/Palermo_necropoli_eng.pdf
Palermo;13.353936;38.186545;Grotta dell'Addaura;Addaura;R.N.O. Monte Pellegrino;;preistorica;Grotta;Chiusa per pericolo caduta massi.;0917071408;urpsopripa@regione.sicilia.it;;Non Disponibile;Non Disponibile;;http://gis.osservatorioturistico.sicilia.it/doc/testi/schede_archeo/Palermo_addaura.pdf;http://gis.osservatorioturistico.sicilia.it/doc/foto/archeo/ico/Palermo_addaura.jpg;;http://gis.osservatorioturistico.sicilia.it/doc/testi/schede_archeo/Palermo_addaura_eng.pdf
Palermo;13.361469;38.115602;Palermo;;Centro urbano;;"arcaica; classica, ellenistica; imperiale";Insediamento;;;nan;;Non Disponibile;Non Disponibile;;http://gis.osservatorioturistico.sicilia.it/doc/testi/schede_archeo/Palermo.pdf;http://gis.osservatorioturistico.sicilia.it/doc/foto/archeo/ico/Palermo.jpg;;http://gis.osservatorioturistico.sicilia.it/doc/testi/schede_archeo/Palermo_eng.pdf
Licata;13.931569;37.100012;Monte Sant'Angelo-Finziade;Monte Sant'Angelo;Area archeologica di Monte Sant'Angelo e Castel Sant'Angelo;http://www.regione.sicilia.it/beniculturali/dirbenicult/database/page_musei/pagina_musei.asp?ID=160&IdSito=14;ellenistica;"Insediamento; Abitato";;0922 772602;nan;;0.0;0.0;Tutti i giorni feriali dalle 8,30 alle 13,30. Domeniche e festivi chiuso;http://gis.osservatorioturistico.sicilia.it/doc/testi/schede_archeo/Finziade.pdf;http://gis.osservatorioturistico.sicilia.it/doc/foto/archeo/ico/Finziade.jpg;;http://gis.osservatorioturistico.sicilia.it/doc/testi/schede_archeo/Finziade_eng.pdf
Augusta;15.181746;37.203773;Agorà;C.da Megara Giannalena;Area archeologica e Antiquarium di Megara Hyblea;http://www.regione.sicilia.it/beniculturali/dirbenicult/database/page_musei/pagina_musei.asp?ID=95&IdSito=79;"arcaica; classica; ellenistica";Area pubblica civile;;09314508211;nan;;4.0;2.0;Tutti i giorni dalle 8,30 alle 16,30 chiusura biglietteria 15,30;http://gis.osservatorioturistico.sicilia.it/doc/testi/schede_archeo/Megara_agora.pdf;http://gis.osservatorioturistico.sicilia.it/doc/foto/archeo/ico/Megara_agora.jpg;;http://gis.osservatorioturistico.sicilia.it/doc/testi/schede_archeo/Megara_agora_eng.pdf
Augusta;15.181797;37.204395;Tempio di IV sec. a.C.;C.da Megara Giannalena;Area archeologica e Antiquarium di Megara Hyblea;http://www.regione.sicilia.it/beniculturali/dirbenicult/database/page_musei/pagina_musei.asp?ID=95&IdSito=79;classica;Tempio;;09314508211;nan;;4.0;2.0;Tutti i giorni dalle 8,30 alle 16,30 chiusura biglietteria 15,30;http://gis.osservatorioturistico.sicilia.it/doc/testi/schede_archeo/Megara_tempio4sec.pdf;http://gis.osservatorioturistico.sicilia.it/doc/foto/archeo/ico/Megara_tempio4sec.jpg;;http://gis.osservatorioturistico.sicilia.it/doc/testi/schede_archeo/Megara_tempio4sec_eng.pdf
Augusta;15.181035;37.204304;Fortificazioni;C.da Megara Giannalena;Area archeologica e Antiquarium di Megara Hyblea;http://www.regione.sicilia.it/beniculturali/dirbenicult/database/page_musei/pagina_musei.asp?ID=95&IdSito=79;"arcaica; classica; ellenistica";Fortificazioni;;09314508211;nan;;4.0;2.0;Tutti i giorni dalle 8,30 alle 16,30 chiusura biglietteria 15,30;http://gis.osservatorioturistico.sicilia.it/doc/testi/schede_archeo/Megara_fortificazioni.pdf;http://gis.osservatorioturistico.sicilia.it/doc/foto/archeo/ico/Megara_fortificazioni.jpg;;http://gis.osservatorioturistico.sicilia.it/doc/testi/schede_archeo/Megara_fortificazioni_eng.pdf
Favignana;12.322131;38.002038;Grotta del Genovese;Cala del Genovese - Isola di Levanzo;Area archeologica delle Egadi;http://www.informazioni-turistiche.it/isole-egadi/levanzo.html;preistorica;Grotta;;0923808111;nan;;0.0;0.0;Previa prenotazione escluso i festivi. La visita dura 2 ore ed è guidata;http://gis.osservatorioturistico.sicilia.it/doc/testi/schede_archeo/Levanzo_genovese.pdf;http://gis.osservatorioturistico.sicilia.it/doc/foto/archeo/ico/Levanzo_genovese.jpg;;http://gis.osservatorioturistico.sicilia.it/doc/testi/schede_archeo/Levanzo_genovese_eng.pdf
Pantelleria;11.951357;36.822437;Acropoli di Santa Teresa e San Marco;Collina di San Marco, via dell'Acropoli;Parco Archeologico delle antiche capitali di Pantelleria;http://www.conoscerepantelleria.it/escursione-archeologica.html;"arcaica; classica; ellenistica; romana; imperiale";"Insediamento; Abitato";;0923808111;nan;;0.0;0.0;;http://gis.osservatorioturistico.sicilia.it/doc/testi/schede_archeo/Pantelleria_cossyra.pdf;http://gis.osservatorioturistico.sicilia.it/doc/foto/archeo/ico/Pantelleria_acropoli.jpg;;http://gis.osservatorioturistico.sicilia.it/doc/testi/schede_archeo/Pantelleria_cossyra_eng.pdf
Pantelleria;11.929649;36.810845;Villaggio di Mursia;C.da Mursia, tra Cala di Modica e Cala dell'Alca;Parco archeologico delle antiche capitali di Pantelleria;http://it.wikipedia.org/wiki/Pantelleria;preistorica;Abitato;;0923808111;nan;;0.0;0.0;Sito aperto non custodito;http://gis.osservatorioturistico.sicilia.it/doc/testi/schede_archeo/Pantelleria_mursia.pdf;http://gis.osservatorioturistico.sicilia.it/doc/foto/archeo/ico/Pantelleria_mursia.jpg;;http://gis.osservatorioturistico.sicilia.it/doc/testi/schede_archeo/Pantelleria_mursia_eng.pdf
Pantelleria;11.93155;36.807903;Grande Sese;C.da Cimillia;Parco archeologico delle antiche capitali di Pantelleria;http://it.wikipedia.org/wiki/Pantelleria;preistorica;Necropoli;;0923808111;nan;;0.0;0.0;Sito aperto non custodito;http://gis.osservatorioturistico.sicilia.it/doc/testi/schede_archeo/Pantelleria_sese.pdf;http://gis.osservatorioturistico.sicilia.it/doc/foto/archeo/ico/Pantelleria_sese.jpg;;http://gis.osservatorioturistico.sicilia.it/doc/testi/schede_archeo/Pantelleria_sese_eng.pdf
Taormina;15.292193;37.852347;Teatro Greco-Romano;via del Teatro Greco 40;Parco archeologico di Naxos-Taormina;http://www.regione.sicilia.it/beniculturali/dirbenicult/database/page_musei/pagina_musei.asp?ID=43&IdSito=50;"ellenistica; romana; imperiale";Teatro;http://www.regione.sicilia.it/beniculturali/Dirbenicult/database/page_musei/Orario%20di%20fruizione%20Siti%20Parco%20di%20Naxos.pdf;094223220;nan;;10.0;5.0;Aperto tutti i giorni dalle 9.00 ad un'ora prima del tramonto;http://gis.osservatorioturistico.sicilia.it/doc/testi/schede_archeo/Taormina_teatro.pdf;http://gis.osservatorioturistico.sicilia.it/doc/foto/archeo/ico/Taormina_teatro.jpg;;http://gis.osservatorioturistico.sicilia.it/doc/testi/schede_archeo/Taormina_teatro_eng.pdf
Taormina;15.288001;37.853942;Odeon;Via Timeo;Parco archeologico di Naxos-Taormina;;"ellenistica; imperiale";Edificio pubblico civile;Sito recintato osservabile dalla strada;;nan;;Non Disponibile;0.0;;http://gis.osservatorioturistico.sicilia.it/doc/testi/schede_archeo/Taormina_odeon.pdf;http://gis.osservatorioturistico.sicilia.it/doc/foto/archeo/ico/Taormina_odeon.jpg;;http://gis.osservatorioturistico.sicilia.it/doc/testi/schede_archeo/Taormina_odeon_eng.pdf
Taormina;15.287393;37.852465;Naumachie;Via Naumachie;Parco archeologico di Naxos-Taormina;;"ellenistica; imperiale";Edificio pubblico civile;Osservabile dalla via;;nan;;Non Disponibile;0.0;;http://gis.osservatorioturistico.sicilia.it/doc/testi/schede_archeo/Taormina_naumachie.pdf;http://gis.osservatorioturistico.sicilia.it/doc/foto/archeo/ico/Taormina_naumachie.jpg;;http://gis.osservatorioturistico.sicilia.it/doc/testi/schede_archeo/Taormina_naumachie_eng.pdf
Tusa;14.262624;37.997866;Agorà;C.da Santa Maria delle Palate;Area archeologica di Halaesa Arconidea;http://www.regione.sicilia.it/beniculturali/dirbenicult/database/page_musei/pagina_musei.asp?ID=45&IdSito=52;"ellenistica; romana; imperiale";Area pubblica civile;Si informa che per la temporanea disattivazione delle linee telefoniche di rete fissa, le comunicazioni potranno essere inviate alle caselle polomuseale.me.uo3@regione.sicilia.it e museo.messina.uo3@regione.sicilia.it;;nan;;0.0;0.0;Orario di apertura: Da martedì a domenica dalle 9,00 alle 18,30. Apertura nei giorni festivi 16, 17 e 25 aprile e 1 maggio. Orario biglietteria 9,00/18,00;http://gis.osservatorioturistico.sicilia.it/doc/testi/schede_archeo/Halaesa_agora.pdf;http://gis.osservatorioturistico.sicilia.it/doc/foto/archeo/ico/Halaesa_agora.jpg;;http://gis.osservatorioturistico.sicilia.it/doc/testi/schede_archeo/Halaesa_agora_eng.pdf
Tusa;14.262273;37.99926;Fortificazioni;C.da Santa Maria delle Palate;Area archeologica di Halaesa Arconidea;http://www.regione.sicilia.it/beniculturali/dirbenicult/database/page_musei/pagina_musei.asp?ID=45&IdSito=52;"classica; ellenistica";Fortificazioni;Si informa che per la temporanea disattivazione delle linee telefoniche di rete fissa, le comunicazioni potranno essere inviate alle caselle polomuseale.me.uo3@regione.sicilia.it e museo.messina.uo3@regione.sicilia.it;;nan;;0.0;0.0;Orario di apertura: Da martedì a domenica dalle 9,00 alle 18,30. Apertura nei giorni festivi 16, 17 e 25 aprile e 1 maggio. Orario biglietteria 9,00/18,00;http://gis.osservatorioturistico.sicilia.it/doc/testi/schede_archeo/Halaesa_fortificazioni.pdf;http://gis.osservatorioturistico.sicilia.it/doc/foto/archeo/ico/Halaesa_fortificazioni.jpg;;http://gis.osservatorioturistico.sicilia.it/doc/testi/schede_archeo/Halaesa_fortificazioni_eng.pdf
Tusa;14.261664;37.994501;Colombario;C.da Santa Maria delle Palate;Area archeologica di Halaesa Arconidea;http://www.regione.sicilia.it/beniculturali/dirbenicult/database/page_musei/pagina_musei.asp?ID=45&IdSito=52;imperiale;Necropoli;Si informa che per la temporanea disattivazione delle linee telefoniche di rete fissa, le comunicazioni potranno essere inviate alle caselle polomuseale.me.uo3@regione.sicilia.it e museo.messina.uo3@regione.sicilia.it;;nan;;0.0;0.0;Orario di apertura: Da martedì a domenica dalle 9,00 alle 18,30. Apertura nei giorni festivi 16, 17 e 25 aprile e 1 maggio. Orario biglietteria 9,00/18,00;http://gis.osservatorioturistico.sicilia.it/doc/testi/schede_archeo/Halaesa_colombario.pdf;http://gis.osservatorioturistico.sicilia.it/doc/foto/archeo/ico/Halaesa_colombario.jpg;;http://gis.osservatorioturistico.sicilia.it/doc/testi/schede_archeo/Halaesa_colombario_eng.pdf
Ragusa;14.447204;36.872279;Tempio;S.P. 102 Km.1 C.da Cammarana;Parco archeologico terracqueo di Kamarina;http://www.regione.sicilia.it/beniculturali/dirbenicult/database/page_musei/pagina_musei.asp?ID=177&IdSito=125;classica;Tempio;Biglietto unico con Museo di Kamarina (attualmente chiuso per lavori di messa in sicurezza);3346040449;urp.museo.kamarina@regione.sicilia.it;https://it-it.facebook.com/pages/Museo-archeologico-regionale-di-Kamarina/637034176357925, https://it-it.facebook.com/Museo-Regionale-di-Kamarina-304263013003157/;4.0;2.0;Aperto tutti i giorni feriali dalle 9.00 alle 18.00. Apertura festiva solo la prima domenica del mese;http://gis.osservatorioturistico.sicilia.it/doc/testi/schede_archeo/Kamarina_tempio.pdf;http://gis.osservatorioturistico.sicilia.it/doc/foto/archeo/ico/Kamarina_tempio.jpg;(parco in corso di definizione);http://gis.osservatorioturistico.sicilia.it/doc/testi/schede_archeo/Kamarina_tempio_eng.pdf
Ragusa;14.44186;36.873121;Agorà;S.P. 102 Km.1 C.da Cammarana;Parco archeologico terracqueo di Kamarina;http://www.regione.sicilia.it/beniculturali/dirbenicult/database/page_musei/pagina_musei.asp?ID=177&IdSito=125;classica;Area pubblica civile;Biglietto unico con Museo di Kamarina (attualmente chiuso per lavori di messa in sicurezza);3346040449;urp.museo.kamarina@regione.sicilia.it;https://it-it.facebook.com/pages/Museo-archeologico-regionale-di-Kamarina/637034176357925, https://it-it.facebook.com/Museo-Regionale-di-Kamarina-304263013003157/;4.0;2.0;Aperto tutti i giorni feriali dalle 9.00 alle 18.00. Apertura festiva solo la prima domenica del mese;http://gis.osservatorioturistico.sicilia.it/doc/testi/schede_archeo/Kamarina_agora.pdf;http://gis.osservatorioturistico.sicilia.it/doc/foto/archeo/ico/Kamarina_agora.jpg;(parco in corso di definizione);http://gis.osservatorioturistico.sicilia.it/doc/testi/schede_archeo/Kamarina_agora_eng.pdf
Ragusa;14.442657;36.874269;Case;S.P. 102 Km.1 C.da Cammarana;Parco archeologico terracqueo di Kamarina;http://www.regione.sicilia.it/beniculturali/dirbenicult/database/page_musei/pagina_musei.asp?ID=177&IdSito=125;"arcaica; classica";Casa;Biglietto unico con Museo di Kamarina (attualmente chiuso per lavori di messa in sicurezza);3346040449;urp.museo.kamarina@regione.sicilia.it;https://it-it.facebook.com/pages/Museo-archeologico-regionale-di-Kamarina/637034176357925, https://it-it.facebook.com/Museo-Regionale-di-Kamarina-304263013003157/;4.0;2.0;Aperto tutti i giorni feriali dalle 9.00 alle 18.00. Apertura festiva solo la prima domenica del mese;http://gis.osservatorioturistico.sicilia.it/doc/testi/schede_archeo/Kamarina_case.pdf;http://gis.osservatorioturistico.sicilia.it/doc/foto/archeo/ico/Kamarina_case.jpg;(parco in corso di definizione);http://gis.osservatorioturistico.sicilia.it/doc/testi/schede_archeo/Kamarina_case_eng.pdf
Ragusa;14.445711;36.87067;Santuario divinità ctonie;S.P. 102 Km.1 C.da Cammarana;Parco archeologico terracqueo di Kamarina;http://www.regione.sicilia.it/beniculturali/dirbenicult/database/page_musei/pagina_musei.asp?ID=177&IdSito=125;"arcaica; classica";Santuario;Biglietto unico con Museo di Kamarina (attualmente chiuso per lavori di messa in sicurezza);3346040449;urp.museo.kamarina@regione.sicilia.it;https://it-it.facebook.com/pages/Museo-archeologico-regionale-di-Kamarina/637034176357925, https://it-it.facebook.com/Museo-Regionale-di-Kamarina-304263013003157/;4.0;2.0;Aperto tutti i giorni feriali dalle 9.00 alle 18.00. Apertura festiva solo la prima domenica del mese;http://gis.osservatorioturistico.sicilia.it/doc/testi/schede_archeo/Kamarina_ctonie.pdf;http://gis.osservatorioturistico.sicilia.it/doc/foto/archeo/ico/Kamarina_ctonie.jpg;(parco in corso di definizione);http://gis.osservatorioturistico.sicilia.it/doc/testi/schede_archeo/Kamarina_ctonie_eng.pdf
Patti;15.043983;38.142912;Basilica;Via del Teatro Greco - Loc. Tindari;Area archeologica Teatro Antico e Antiquarium di Tindari;http://www.regione.sicilia.it/beniculturali/dirbenicult/database/page_musei/pagina_musei.asp?ID=46&IdSito=48;imperiale;Edificio pubblico civile;Dal 1 settembre 2015 è istituito il biglietto unico per la visita della Villa Romana di Patti Marina e dell'area archeologica di Tindari (tariffa intera di € 8,00 e ridotta di € 4,00), la cui validità è di tre giorni dalla data di emissione.;0941369023;nan;;6.0;3.0;Tutti i giorni dalle ore 9 alle ore 19 (Ultimo ingresso fino a mezz'ora prima della chiusura).;http://gis.osservatorioturistico.sicilia.it/doc/testi/schede_archeo/Tindari_basilica.pdf;http://gis.osservatorioturistico.sicilia.it/doc/foto/archeo/ico/Tindari_basilica.jpg;D.A. 244 del 01/07/81;http://gis.osservatorioturistico.sicilia.it/doc/testi/schede_archeo/Tindari_basilica_eng.pdf
Patti;15.042404;38.143702;Teatro;Via del Teatro Greco - Loc. Tindari;Area archeologica Teatro Antico e Antiquarium di Tindari;http://www.regione.sicilia.it/beniculturali/dirbenicult/database/page_musei/pagina_musei.asp?ID=46&IdSito=48;"ellenistica; imperiale";Teatro;Dal 1 settembre 2015 è istituito il biglietto unico per la visita della Villa Romana di Patti Marina e dell'area archeologica di Tindari (tariffa intera di € 8,00 e ridotta di € 4,00), la cui validità è di tre giorni dalla data di emissione.;0941369023;nan;;6.0;3.0;Tutti i giorni dalle ore 9 alle ore 19 (Ultimo ingresso fino a mezz'ora prima della chiusura).;http://gis.osservatorioturistico.sicilia.it/doc/testi/schede_archeo/Tindari_teatro.pdf;http://gis.osservatorioturistico.sicilia.it/doc/foto/archeo/ico/Tindari_teatro.jpg;D.A. 244 del 01/07/81;http://gis.osservatorioturistico.sicilia.it/doc/testi/schede_archeo/Tindari_teatro_eng.pdf
Patti;15.040819;38.146103;Isolato XVII B - Domus - Cercadenari;Via del Teatro Greco - Loc. Tindari;Area archeologica Teatro Antico e Antiquarium di Tindari;http://www.regione.sicilia.it/beniculturali/dirbenicult/database/page_musei/pagina_musei.asp?ID=46&IdSito=48;"ellenistica; imperiale";Abitato;Dal 1 settembre 2015 è istituito il biglietto unico per la visita della Villa Romana di Patti Marina e dell'area archeologica di Tindari (tariffa intera di € 8,00 e ridotta di € 4,00), la cui validità è di tre giorni dalla data di emissione.;0941369023;nan;;6.0;3.0;Tutti i giorni dalle ore 9 alle ore 19 (Ultimo ingresso fino a mezz'ora prima della chiusura).;http://gis.osservatorioturistico.sicilia.it/doc/testi/schede_archeo/Tindari_isolato17b.pdf;http://gis.osservatorioturistico.sicilia.it/doc/foto/archeo/ico/Tindari_isolato17b.jpg;D.A. 244 del 01/07/81;http://gis.osservatorioturistico.sicilia.it/doc/testi/schede_archeo/Tindari_isolato17b_eng.pdf
Patti;15.043918;38.143325;Isolato IV;Via del Teatro Greco - Loc. Tindari;Area archeologica Teatro Antico e Antiquarium di Tindari;http://www.regione.sicilia.it/beniculturali/dirbenicult/database/page_musei/pagina_musei.asp?ID=46&IdSito=48;"ellenistica; imperiale";"Casa; Abitato";Dal 1 settembre 2015 è istituito il biglietto unico per la visita della Villa Romana di Patti Marina e dell'area archeologica di Tindari (tariffa intera di € 8,00 e ridotta di € 4,00), la cui validità è di tre giorni dalla data di emissione.;0941369023;nan;;6.0;3.0;Tutti i giorni dalle ore 9 alle ore 19 (Ultimo ingresso fino a mezz'ora prima della chiusura).;http://gis.osservatorioturistico.sicilia.it/doc/testi/schede_archeo/Tindari_isolato4.pdf;http://gis.osservatorioturistico.sicilia.it/doc/foto/archeo/ico/Tindari_isolato4.jpg;D.A. 244 del 01/07/81;http://gis.osservatorioturistico.sicilia.it/doc/testi/schede_archeo/Tindari_isolato4_eng.pdf
Cattolica Eraclea;13.280652;37.394276;Teatro;C.da Minoa;Area archeologica di Eraclea Minoa;http://www.regione.sicilia.it/beniculturali/dirbenicult/database/page_musei/pagina_musei.asp?ID=35&IdSito=9;ellenistica;Teatro;;0922 846005;nan;;4.0;2.0;Tutti i giorni dalle 8,30 alle 19,30 compreso i festivi;http://gis.osservatorioturistico.sicilia.it/doc/testi/schede_archeo/Eraclea_teatro.pdf;http://gis.osservatorioturistico.sicilia.it/doc/foto/archeo/ico/Eraclea_teatro.jpg;;http://gis.osservatorioturistico.sicilia.it/doc/testi/schede_archeo/Eraclea_teatro_eng.pdf
Cattolica Eraclea;13.280426;37.393683;Case II A e II B;C.da Minoa;Area archeologica di Eraclea Minoa;http://www.regione.sicilia.it/beniculturali/dirbenicult/database/page_musei/pagina_musei.asp?ID=35&IdSito=9;ellenistica;Insediamento;;0922 846005;nan;;4.0;2.0;Tutti i giorni dalle 8,30 alle 19,30 compreso i festivi;http://gis.osservatorioturistico.sicilia.it/doc/testi/schede_archeo/Eraclea_case.pdf;http://gis.osservatorioturistico.sicilia.it/doc/foto/archeo/ico/Eraclea_case.jpg;;http://gis.osservatorioturistico.sicilia.it/doc/testi/schede_archeo/Eraclea_case_eng.pdf
Aidone;14.481215;37.430382;Casa di Ganimede;C.da Serra Orlando;Parco archeologico di Morgantina;http://www.regione.sicilia.it/bbccaa/dirbenicult/musei/cartedelleareearcheologiche/morgantina.pdf;ellenistica;Casa;Vendita biglietti ridotti e cumulativi di due o tre siti tra: Area di Morgantina, Museo di Aidone e Villa del Casale.;093587955;nan;;6.0;3.0;Dal 28 ottobre aperta ogni giorno, compresi i festivi, dalle 9,00 alle 16,00 (chiusura dei cancelli alle 17.00).;http://gis.osservatorioturistico.sicilia.it/doc/testi/schede_archeo/Morgantina_ganimede.pdf;http://gis.osservatorioturistico.sicilia.it/doc/foto/archeo/ico/Morgantina_ganimede.jpg;(parco in corso di definizione);http://gis.osservatorioturistico.sicilia.it/doc/testi/schede_archeo/Morgantina_ganimede_eng.pdf
Aidone;14.479996;37.430893;Prytaneion;C.da Serra Orlando;Parco archeologico di Morgantina;http://www.regione.sicilia.it/bbccaa/dirbenicult/musei/cartedelleareearcheologiche/morgantina.pdf;ellenistica;Edificio pubblico civile;Vendita biglietti ridotti e cumulativi di due o tre siti tra: Area di Morgantina, Museo di Aidone e Villa del Casale.;093587955;nan;;6.0;3.0;Dal 28 ottobre aperta ogni giorno, compresi i festivi, dalle 9,00 alle 16,00 (chiusura dei cancelli alle 17.00).;http://gis.osservatorioturistico.sicilia.it/doc/testi/schede_archeo/Morgantina_prytaneion.pdf;http://gis.osservatorioturistico.sicilia.it/doc/foto/archeo/ico/Morgantina_prytaneion.jpg;(parco in corso di definizione);http://gis.osservatorioturistico.sicilia.it/doc/testi/schede_archeo/Morgantina_prytaneion_eng.pdf
Aidone;14.479305;37.43098;Macellum;C.da Serra Orlando;Parco archeologico di Morgantina;http://www.regione.sicilia.it/bbccaa/dirbenicult/musei/cartedelleareearcheologiche/morgantina.pdf;"ellenistica; imperiale";Edificio pubblico civile;Vendita biglietti ridotti e cumulativi di due o tre siti tra: Area di Morgantina, Museo di Aidone e Villa del Casale.;093587955;nan;;6.0;3.0;Dal 28 ottobre aperta ogni giorno, compresi i festivi, dalle 9,00 alle 16,00 (chiusura dei cancelli alle 17.00).;http://gis.osservatorioturistico.sicilia.it/doc/testi/schede_archeo/Morgantina_macellum.pdf;http://gis.osservatorioturistico.sicilia.it/doc/foto/archeo/ico/Morgantina_macellum.jpg;(parco in corso di definizione);http://gis.osservatorioturistico.sicilia.it/doc/testi/schede_archeo/Morgantina_macellum_eng.pdf
Aidone;14.479383;37.43007;Teatro;C.da Serra Orlando;Parco archeologico di Morgantina;http://www.regione.sicilia.it/bbccaa/dirbenicult/musei/cartedelleareearcheologiche/morgantina.pdf;ellenistica;Teatro;Vendita biglietti ridotti e cumulativi di due o tre siti tra: Area di Morgantina, Museo di Aidone e Villa del Casale.;093587955;nan;;6.0;3.0;Dal 28 ottobre aperta ogni giorno, compresi i festivi, dalle 9,00 alle 16,00 (chiusura dei cancelli alle 17.00).;http://gis.osservatorioturistico.sicilia.it/doc/testi/schede_archeo/Morgantina_teatro.pdf;http://gis.osservatorioturistico.sicilia.it/doc/foto/archeo/ico/Morgantina_teatro.jpg;(parco in corso di definizione);http://gis.osservatorioturistico.sicilia.it/doc/testi/schede_archeo/Morgantina_teatro_eng.pdf
Aidone;14.47959;37.431313;Stoà est;C.da Serra Orlando;Parco archeologico di Morgantina;http://www.regione.sicilia.it/bbccaa/dirbenicult/musei/cartedelleareearcheologiche/morgantina.pdf;ellenistica;Edificio pubblico civile;Vendita biglietti ridotti e cumulativi di due o tre siti tra: Area di Morgantina, Museo di Aidone e Villa del Casale.;093587955;nan;;6.0;3.0;Dal 28 ottobre aperta ogni giorno, compresi i festivi, dalle 9,00 alle 16,00 (chiusura dei cancelli alle 17.00).;http://gis.osservatorioturistico.sicilia.it/doc/testi/schede_archeo/Morgantina_stoaest.pdf;http://gis.osservatorioturistico.sicilia.it/doc/foto/archeo/ico/Morgantina_stoaest.jpg;(parco in corso di definizione);http://gis.osservatorioturistico.sicilia.it/doc/testi/schede_archeo/Morgantina_stoaest_eng.pdf
Aidone;14.479674;37.430324;Santuario divinità ctonie;C.da Serra Orlando;Parco archeologico di Morgantina;http://www.regione.sicilia.it/bbccaa/dirbenicult/musei/cartedelleareearcheologiche/morgantina.pdf;"arcaica; classica; ellenistica";Santuario;Vendita biglietti ridotti e cumulativi di due o tre siti tra: Area di Morgantina, Museo di Aidone e Villa del Casale.;093587955;nan;;6.0;3.0;Dal 28 ottobre aperta ogni giorno, compresi i festivi, dalle 9,00 alle 16,00 (chiusura dei cancelli alle 17.00).;http://gis.osservatorioturistico.sicilia.it/doc/testi/schede_archeo/Morgantina_santuarioctonie.pdf;http://gis.osservatorioturistico.sicilia.it/doc/foto/archeo/ico/Morgantina_santuarioctonie.jpg;(parco in corso di definizione);http://gis.osservatorioturistico.sicilia.it/doc/testi/schede_archeo/Morgantina_santuarioctonie_eng.pdf
Aidone;14.480891;37.430074;La grande fornace;C.da Serra Orlando;Parco archeologico di Morgantina;http://www.regione.sicilia.it/bbccaa/dirbenicult/musei/cartedelleareearcheologiche/morgantina.pdf;"ellenistica; imperiale";Struttura industriale;Vendita biglietti ridotti e cumulativi di due o tre siti tra: Area di Morgantina, Museo di Aidone e Villa del Casale.;093587955;nan;;6.0;3.0;Dal 28 ottobre aperta ogni giorno, compresi i festivi, dalle 9,00 alle 16,00 (chiusura dei cancelli alle 17.00).;http://gis.osservatorioturistico.sicilia.it/doc/testi/schede_archeo/Morgantina_grandefornace.pdf;http://gis.osservatorioturistico.sicilia.it/doc/foto/archeo/ico/Morgantina_grandefornace.jpg;(parco in corso di definizione);http://gis.osservatorioturistico.sicilia.it/doc/testi/schede_archeo/Morgantina_grandefornace_eng.pdf
Aidone;14.479444;37.430688;Ekklesiasterion;C.da Serra Orlando;Parco archeologico di Morgantina;http://www.regione.sicilia.it/bbccaa/dirbenicult/musei/cartedelleareearcheologiche/morgantina.pdf;ellenistica;Edificio pubblico civile;Vendita biglietti ridotti e cumulativi di due o tre siti tra: Area di Morgantina, Museo di Aidone e Villa del Casale.;093587955;nan;;6.0;3.0;Dal 28 ottobre aperta ogni giorno, compresi i festivi, dalle 9,00 alle 16,00 (chiusura dei cancelli alle 17.00).;http://gis.osservatorioturistico.sicilia.it/doc/testi/schede_archeo/Morgantina_ekklesiasterion.pdf;http://gis.osservatorioturistico.sicilia.it/doc/foto/archeo/ico/Morgantina_ekklesiasterion.jpg;(parco in corso di definizione);http://gis.osservatorioturistico.sicilia.it/doc/testi/schede_archeo/Morgantina_ekklesiasterion_eng.pdf
Aidone;14.477723;37.431181;Bouleuterion;C.da Morgantina;Parco archeologico di Morgantina;http://www.regione.sicilia.it/bbccaa/dirbenicult/musei/cartedelleareearcheologiche/morgantina.pdf;ellenistica;Edificio pubblico civile;Vendita biglietti ridotti e cumulativi di due o tre siti tra: Area di Morgantina, Museo di Aidone e Villa del Casale.;093587955;nan;;6.0;3.0;Dal 28 ottobre aperta ogni giorno, compresi i festivi, dalle 9,00 alle 16,00 (chiusura dei cancelli alle 17.00).;http://gis.osservatorioturistico.sicilia.it/doc/testi/schede_archeo/Morgantina_bouleuterion.pdf;http://gis.osservatorioturistico.sicilia.it/doc/foto/archeo/ico/Morgantina_bouleuterion.jpg;(parco in corso di definizione);http://gis.osservatorioturistico.sicilia.it/doc/testi/schede_archeo/Morgantina_bouleuterion_eng.pdf
Aidone;14.480311;37.431003;Casa del capitello dorico;C.da Serra Orlando;Parco archeologico di Morgantina;http://www.regione.sicilia.it/bbccaa/dirbenicult/musei/cartedelleareearcheologiche/morgantina.pdf;"ellenistica; imperiale";Casa;Vendita biglietti ridotti e cumulativi di due o tre siti tra: Area di Morgantina, Museo di Aidone e Villa del Casale.;093587955;nan;;6.0;3.0;Dal 28 ottobre aperta ogni giorno, compresi i festivi, dalle 9,00 alle 16,00 (chiusura dei cancelli alle 17.00).;http://gis.osservatorioturistico.sicilia.it/doc/testi/schede_archeo/Morgantina_capitellodorico.pdf;http://gis.osservatorioturistico.sicilia.it/doc/foto/archeo/ico/Morgantina_capitellodorico.jpg;(parco in corso di definizione);http://gis.osservatorioturistico.sicilia.it/doc/testi/schede_archeo/Morgantina_capitellodorico_eng.pdf
Aidone;14.479162;37.431703;Fontana monumentale;C.da Serra Orlando;Parco archeologico di Morgantina;http://www.regione.sicilia.it/bbccaa/dirbenicult/musei/cartedelleareearcheologiche/morgantina.pdf;ellenistica;Fontana;Vendita biglietti ridotti e cumulativi di due o tre siti tra: Area di Morgantina, Museo di Aidone e Villa del Casale.;093587955;nan;;6.0;3.0;Dal 28 ottobre aperta ogni giorno, compresi i festivi, dalle 9,00 alle 16,00 (chiusura dei cancelli alle 17.00).;http://gis.osservatorioturistico.sicilia.it/doc/testi/schede_archeo/Morgantina_fontana.pdf;http://gis.osservatorioturistico.sicilia.it/doc/foto/archeo/ico/Morgantina_fontana.jpg;(parco in corso di definizione);http://gis.osservatorioturistico.sicilia.it/doc/testi/schede_archeo/Morgantina_fontana_eng.pdf
Aidone;14.473058;37.427449;Terme Nord;C.da Santa Agnese;Parco archeologico di Morgantina;http://www.facebook.com/media/set/?set=a.275786462553616.67458.217998124999117&type=1;"ellenistica; imperiale";Terme;Vendita biglietti ridotti e cumulativi di due o tre siti tra: Area di Morgantina, Museo di Aidone e Villa del Casale.;093587955;nan;;6.0;3.0;Dal 28 ottobre aperta ogni giorno, compresi i festivi, dalle 9,00 alle 16,00 (chiusura dei cancelli alle 17.00).;http://gis.osservatorioturistico.sicilia.it/doc/testi/schede_archeo/Morgantina_termenord.pdf;http://gis.osservatorioturistico.sicilia.it/doc/foto/archeo/ico/Morgantina_termenord.jpg;(parco in corso di definizione);http://gis.osservatorioturistico.sicilia.it/doc/testi/schede_archeo/Morgantina_termenord_eng.pdf
Aidone;14.480071;37.430067;Granai;C.da Serra Orlando;Parco archeologico di Morgantina;http://www.regione.sicilia.it/bbccaa/dirbenicult/musei/cartedelleareearcheologiche/morgantina.pdf;"ellenistica; romana";Edificio pubblico civile;Vendita biglietti ridotti e cumulativi di due o tre siti tra: Area di Morgantina, Museo di Aidone e Villa del Casale.;093587955;nan;;6.0;3.0;Dal 28 ottobre aperta ogni giorno, compresi i festivi, dalle 9,00 alle 16,00 (chiusura dei cancelli alle 17.00).;http://gis.osservatorioturistico.sicilia.it/doc/testi/schede_archeo/Morgantina_granai.pdf;http://gis.osservatorioturistico.sicilia.it/doc/foto/archeo/ico/Morgantina_granai.jpg;(parco in corso di definizione);http://gis.osservatorioturistico.sicilia.it/doc/testi/schede_archeo/Morgantina_granai_eng.pdf
Aidone;14.47762;37.428473;Casa del Magistrato;C.da Serra Orlando;Parco archeologico di Morgantina;http://www.regione.sicilia.it/bbccaa/dirbenicult/musei/cartedelleareearcheologiche/morgantina.pdf;ellenistica;Casa;Vendita biglietti ridotti e cumulativi di due o tre siti tra: Area di Morgantina, Museo di Aidone e Villa del Casale.;093587955;nan;;6.0;3.0;Dal 28 ottobre aperta ogni giorno, compresi i festivi, dalle 9,00 alle 16,00 (chiusura dei cancelli alle 17.00).;http://gis.osservatorioturistico.sicilia.it/doc/testi/schede_archeo/Morgantina_magistrato.pdf;http://gis.osservatorioturistico.sicilia.it/doc/foto/archeo/ico/Morgantina_magistrato.jpg;(parco in corso di definizione);http://gis.osservatorioturistico.sicilia.it/doc/testi/schede_archeo/Morgantina_magistrato_eng.pdf
Aidone;14.477219;37.430024;Casa della cisterna ad arco;C.da Serra Orlando;Parco archeologico di Morgantina;http://www.regione.sicilia.it/bbccaa/dirbenicult/musei/cartedelleareearcheologiche/morgantina.pdf;ellenistica;Casa;Vendita biglietti ridotti e cumulativi di due o tre siti tra: Area di Morgantina, Museo di Aidone e Villa del Casale.;093587955;nan;;6.0;3.0;Dal 28 ottobre aperta ogni giorno, compresi i festivi, dalle 9,00 alle 16,00 (chiusura dei cancelli alle 17.00).;http://gis.osservatorioturistico.sicilia.it/doc/testi/schede_archeo/Morgantina_cisternaadarco.pdf;http://gis.osservatorioturistico.sicilia.it/doc/foto/archeo/ico/Morgantina_cisternaadarco.jpg;(parco in corso di definizione);http://gis.osservatorioturistico.sicilia.it/doc/testi/schede_archeo/Morgantina_cisternaadarco_eng.pdf
Aidone;14.480051;37.430655;Fornace;C.da Serra Orlando;Parco archeologico di Morgantina;http://www.regione.sicilia.it/bbccaa/dirbenicult/musei/cartedelleareearcheologiche/morgantina.pdf;"ellenistica; romana";Struttura industriale;Vendita biglietti ridotti e cumulativi di due o tre siti tra: Area di Morgantina, Museo di Aidone e Villa del Casale.;093587955;nan;;6.0;3.0;Dal 28 ottobre aperta ogni giorno, compresi i festivi, dalle 9,00 alle 16,00 (chiusura dei cancelli alle 17.00).;http://gis.osservatorioturistico.sicilia.it/doc/testi/schede_archeo/Morgantina_grandefornace.pdf;http://gis.osservatorioturistico.sicilia.it/doc/foto/archeo/ico/Morgantina_fornace.jpg;(parco in corso di definizione);http://gis.osservatorioturistico.sicilia.it/doc/testi/schede_archeo/Morgantina_grandefornace_eng.pdf
Marsala;12.469561;37.870184;Area K- Zona artigianale;Isola di San Pantaleo;Area archeologica di Mozia;http://it.wikipedia.org/wiki/Mozia;"arcaica; classica";Struttura industriale;Fondazione 'Giuseppe Whitaker', Via Dante 167 - 90141 Palermo;0916820522;info@fondazionewhitaker.it;;9.0;5.0;01/11 - 31/03 9,00 - 15.00, 01/04 - 31/10 9.30 - 18,30;http://gis.osservatorioturistico.sicilia.it/doc/testi/schede_archeo/Mozia_areak.pdf;http://gis.osservatorioturistico.sicilia.it/doc/foto/archeo/ico/Mozia_areak.jpg;;http://gis.osservatorioturistico.sicilia.it/doc/testi/schede_archeo/Mozia_areak_eng.pdf
Marsala;12.471029;37.869731;Fortificazioni di Nord-Est;Isola di San Pantaleo;Area archeologica di Mozia;http://it.wikipedia.org/wiki/Mozia;"arcaica; classica";Fortificazioni;Fondazione 'Giuseppe Whitaker', Via Dante 167 - 90141 Palermo;0916820522;info@fondazionewhitaker.it;;9.0;5.0;01/11 - 31/03 9,00 - 15.00, 01/04 - 31/10 9.30 - 18,30;http://gis.osservatorioturistico.sicilia.it/doc/testi/schede_archeo/Mozia_nefortificazioni.pdf;http://gis.osservatorioturistico.sicilia.it/doc/foto/archeo/ico/Mozia_nefortificazioni.jpg;;http://gis.osservatorioturistico.sicilia.it/doc/testi/schede_archeo/Mozia_nefortificazioni_eng.pdf
Marsala;12.468351;37.870205;Area T - Zona artigianale;Isola di San Pantaleo;Area archeologica di Mozia;http://it.wikipedia.org/wiki/Mozia;"arcaica; classica";Struttura industriale;Fondazione 'Giuseppe Whitaker', Via Dante 167 - 90141 Palermo;0916820522;info@fondazionewhitaker.it;;9.0;5.0;01/11 - 31/03 9,00 - 15.00, 01/04 - 31/10 9.30 - 18,30;http://gis.osservatorioturistico.sicilia.it/doc/testi/schede_archeo/Mozia_areat.pdf;http://gis.osservatorioturistico.sicilia.it/doc/foto/archeo/ico/Mozia_areat.jpg;;http://gis.osservatorioturistico.sicilia.it/doc/testi/schede_archeo/Mozia_areat_eng.pdf
Marsala;12.468539;37.870438;Necropoli arcaica;Isola di San Pantaleo;Area archeologica di Mozia;http://it.wikipedia.org/wiki/Mozia;"arcaica; classica";Necropoli;Fondazione 'Giuseppe Whitaker', Via Dante 167 - 90141 Palermo;0916820522;info@fondazionewhitaker.it;;9.0;5.0;01/11 - 31/03 9,00 - 15.00, 01/04 - 31/10 9.30 - 18,30;http://gis.osservatorioturistico.sicilia.it/doc/testi/schede_archeo/Mozia_necropoli.pdf;http://gis.osservatorioturistico.sicilia.it/doc/foto/archeo/ico/Mozia_necropoli.jpg;;http://gis.osservatorioturistico.sicilia.it/doc/testi/schede_archeo/Mozia_necropoli_eng.pdf
Marsala;12.466663;37.870008;Tophet;Isola di San Pantaleo;Area archeologica di Mozia;http://www.lasapienzamozia.it/mozia/index.php?option=com_content&view=article&id=60&Itemid=102;"arcaica; classica";Santuario;Fondazione 'Giuseppe Whitaker', Via Dante 167 - 90141 Palermo;0916820522;info@fondazionewhitaker.it;;9.0;5.0;01/11 - 31/03 9,00 - 15.00, 01/04 - 31/10 9.30 - 18,30;http://gis.osservatorioturistico.sicilia.it/doc/testi/schede_archeo/Mozia_tophet.pdf;http://gis.osservatorioturistico.sicilia.it/doc/foto/archeo/ico/Mozia_tophet.jpg;;http://gis.osservatorioturistico.sicilia.it/doc/testi/schede_archeo/Mozia_tophet_eng.pdf
Marsala;12.470673;37.870318;Porta Nord;Isola di San Pantaleo;Area archeologica di Mozia;http://it.wikipedia.org/wiki/Mozia;"arcaica; classica";Fortificazioni;Fondazione 'Giuseppe Whitaker', Via Dante 167 - 90141 Palermo;0916820522;info@fondazionewhitaker.it;;9.0;5.0;01/11 - 31/03 9,00 - 15.00, 01/04 - 31/10 9.30 - 18,30;http://gis.osservatorioturistico.sicilia.it/doc/testi/schede_archeo/Mozia_portanord.pdf;http://gis.osservatorioturistico.sicilia.it/doc/foto/archeo/ico/Mozia_portanord.jpg;;http://gis.osservatorioturistico.sicilia.it/doc/testi/schede_archeo/Mozia_portanord_eng.pdf
Marsala;12.469548;37.869759;Santuario Cappiddazzu;Isola di San Pantaleo;Area archeologica di Mozia;http://it.wikipedia.org/wiki/Mozia;"arcaica; classica";Santuario;Fondazione 'Giuseppe Whitaker', Via Dante 167 - 90141 Palermo;0916820522;info@fondazionewhitaker.it;;9.0;5.0;01/11 - 31/03 9,00 - 15.00, 01/04 - 31/10 9.30 - 18,30;http://gis.osservatorioturistico.sicilia.it/doc/testi/schede_archeo/Mozia_cappiddazzu.pdf;http://gis.osservatorioturistico.sicilia.it/doc/foto/archeo/ico/Mozia_capiddazzu.jpg;;http://gis.osservatorioturistico.sicilia.it/doc/testi/schede_archeo/Mozia_cappiddazzu_eng.pdf
Marsala;12.469799;37.865508;Casa dei mosaici;Isola di San Pantaleo;Area archeologica di Mozia;http://it.wikipedia.org/wiki/Mozia;"arcaica; classica";Casa;Fondazione 'Giuseppe Whitaker', Via Dante 167 - 90141 Palermo;0916820522;info@fondazionewhitaker.it;;9.0;5.0;01/11 - 31/03 9,00 - 15.00, 01/04 - 31/10 9.30 - 18,30;http://gis.osservatorioturistico.sicilia.it/doc/testi/schede_archeo/Mozia_casamosaici.pdf;http://gis.osservatorioturistico.sicilia.it/doc/foto/archeo/ico/Mozia_casamosaici.jpg;;http://gis.osservatorioturistico.sicilia.it/doc/testi/schede_archeo/Mozia_casamosaici_eng.pdf
Marsala;12.468477;37.863974;Casermetta;Isola di San Pantaleo;Area archeologica di Mozia;http://it.wikipedia.org/wiki/Mozia;"arcaica; classica";Fortificazioni;Fondazione 'Giuseppe Whitaker', Via Dante 167 - 90141 Palermo;0916820522;info@fondazionewhitaker.it;;9.0;5.0;01/11 - 31/03 9,00 - 15.00, 01/04 - 31/10 9.30 - 18,30;http://gis.osservatorioturistico.sicilia.it/doc/testi/schede_archeo/Mozia_casermetta.pdf;http://gis.osservatorioturistico.sicilia.it/doc/foto/archeo/ico/Mozia_casermetta.jpg;;http://gis.osservatorioturistico.sicilia.it/doc/testi/schede_archeo/Mozia_casermetta_eng.pdf
Marsala;12.466332;37.864549;Santuario del Kothon (tempio di Baal 'Addir);Isola di San Pantaleo;Area archeologica di Mozia;http://www.lasapienzamozia.it/mozia/index.php?option=com_content&view=article&id=89&Itemid=198;"arcaica; classica";Santuario;Fondazione 'Giuseppe Whitaker', Via Dante 167 - 90141 Palermo;0916820522;info@fondazionewhitaker.it;;9.0;5.0;01/11 - 31/03 9,00 - 15.00, 01/04 - 31/10 9.30 - 18,30;http://gis.osservatorioturistico.sicilia.it/doc/testi/schede_archeo/Mozia_kothon.pdf;http://gis.osservatorioturistico.sicilia.it/doc/foto/archeo/ico/Mozia_kothon.jpg;;http://gis.osservatorioturistico.sicilia.it/doc/testi/schede_archeo/Mozia_kothon_eng.pdf
Marsala;12.468235;37.865048;Zona B - Casa del pozzo quadrato;Isola di San Pantaleo;Area archeologica di Mozia;http://www.lasapienzamozia.it/mozia/index.php?option=com_content&view=article&id=172&Itemid=197;classica;Casa;Fondazione 'Giuseppe Whitaker', Via Dante 167 - 90141 Palermo;0916820522;info@fondazionewhitaker.it;;9.0;5.0;01/11 - 31/03 9,00 - 15.00, 01/04 - 31/10 9.30 - 18,30;http://gis.osservatorioturistico.sicilia.it/doc/testi/schede_archeo/Mozia_zonab.pdf;http://gis.osservatorioturistico.sicilia.it/doc/foto/archeo/ico/Mozia_zonab.jpg;;http://gis.osservatorioturistico.sicilia.it/doc/testi/schede_archeo/Mozia_zonab_eng.pdf
Marsala;12.467669;37.865782;Zona D - Casa del sacello domestico e Casa del corno di conchiglia;Isola di San Pantaleo;Area archeologica di Mozia;http://www.lasapienzamozia.it/mozia/index.php?option=com_content&view=article&id=63&Itemid=201;classica;Casa;Fondazione 'Giuseppe Whitaker', Via Dante 167 - 90141 Palermo;0916820522;info@fondazionewhitaker.it;;9.0;5.0;01/11 - 31/03 9,00 - 15.00, 01/04 - 31/10 9.30 - 18,30;http://gis.osservatorioturistico.sicilia.it/doc/testi/schede_archeo/Mozia_zonad.pdf;http://gis.osservatorioturistico.sicilia.it/doc/foto/archeo/ico/Mozia_zonad.jpg;;http://gis.osservatorioturistico.sicilia.it/doc/testi/schede_archeo/Mozia_zonad_eng.pdf
Marsala;12.465181;37.869448;Zona F - Fortezza Occidentale;Isola di San Pantaleo;Area archeologica di Mozia;http://www.lasapienzamozia.it/mozia/index.php?option=com_content&view=article&id=62&Itemid=209;"arcaica; classica";Fortificazioni;Fondazione 'Giuseppe Whitaker', Via Dante 167 - 90141 Palermo;0916820522;info@fondazionewhitaker.it;;9.0;5.0;01/11 - 31/03 9,00 - 15.00, 01/04 - 31/10 9.30 - 18,30;http://gis.osservatorioturistico.sicilia.it/doc/testi/schede_archeo/Mozia_zonaf.pdf;http://gis.osservatorioturistico.sicilia.it/doc/foto/archeo/ico/Mozia_zonaf.jpg;;http://gis.osservatorioturistico.sicilia.it/doc/testi/schede_archeo/Mozia_zonaf_eng.pdf
Marsala;12.469271;37.867346;Zona A - Casa delle anfore;Isola di San Pantaleo;Area archeologica di Mozia;http://it.wikipedia.org/wiki/Mozia;classica;Casa;Fondazione 'Giuseppe Whitaker', Via Dante 167 - 90141 Palermo;0916820522;info@fondazionewhitaker.it;;9.0;5.0;01/11 - 31/03 9,00 - 15.00, 01/04 - 31/10 9.30 - 18,30;http://gis.osservatorioturistico.sicilia.it/doc/testi/schede_archeo/Mozia_zonaa.pdf;http://gis.osservatorioturistico.sicilia.it/doc/foto/archeo/ico/Mozia_zonaa.jpg;;http://gis.osservatorioturistico.sicilia.it/doc/testi/schede_archeo/Mozia_zonaa_eng.pdf
Marsala;12.430164;37.804749;Domus;Lungomare Boeo, 30;Parco archeologico di Lilibeo - Marsala;http://www.regione.sicilia.it/beniculturali/dirbenicult/database/page_musei/pagina_musei.asp?ID=32&IdSito=88;"ellenistica; imperiale";Casa;Ultimo ingresso un'ora prima della chiusura.;0923 952535;museo.lilibeo@regione.sicilia.it, polomuseale.tp.uo3@regione.sicilia.it;https://www.facebook.com/museo.lilibeo/;4.0;2.0;Museo, Area e Grotta (Piazza Vittoria): Lun, Dom e festivi - 9.00-13.30. Mar-Sab - 9.00-17.30.;http://gis.osservatorioturistico.sicilia.it/doc/testi/schede_archeo/Lilibeo_domus.pdf;http://gis.osservatorioturistico.sicilia.it/doc/foto/archeo/ico/Lilibeo_domus.jpg;(parco in corso di definizione);http://gis.osservatorioturistico.sicilia.it/doc/testi/schede_archeo/Lilibeo_domus_eng.pdf
Marsala;12.43705;37.804332;Tomba di Crispia Salvia;Via Massimo D'Azeglio;Parco archeologico di Lilibeo - Marsala;http://www.regione.sicilia.it/beniculturali/dirbenicult/database/page_musei/pagina_musei.asp?ID=32&IdSito=88;imperiale;Necropoli;Per le visite su prenotazione rivolgersi al personale o telefonare allo 0923952535;;nan;;0.0;0.0;Da lunedì a venerdì dalle ore 09.00 alle 13.00 previa prenotazione o richiesta al Museo Baglio Anselmi;http://gis.osservatorioturistico.sicilia.it/doc/testi/schede_archeo/Lilibeo_crispiasalvia.pdf;http://gis.osservatorioturistico.sicilia.it/doc/foto/archeo/ico/Lilibeo_crispiasalvia.jpg;(parco in corso di definizione);http://gis.osservatorioturistico.sicilia.it/doc/testi/schede_archeo/Lilibeo_crispiasalvia_eng.pdf
Marsala;12.430836;37.804305;Tempio di Iside;Lungomare Boeo, 30;Parco archeologico di Lilibeo - Marsala;http://www.regione.sicilia.it/beniculturali/dirbenicult/database/page_musei/pagina_musei.asp?ID=32&IdSito=88;imperiale;Tempio;Ultimo ingresso un'ora prima della chiusura.;0923 952535;museo.lilibeo@regione.sicilia.it, polomuseale.tp.uo3@regione.sicilia.it;https://www.facebook.com/museo.lilibeo/;4.0;2.0;Museo, Area e Grotta (Piazza Vittoria): Lun, Dom e festivi - 9.00-13.30. Mar-Sab - 9.00-17.30.;http://gis.osservatorioturistico.sicilia.it/doc/testi/schede_archeo/Lilibeo_iside.pdf;http://gis.osservatorioturistico.sicilia.it/doc/foto/archeo/ico/Lilibeo_iside.jpg;(parco in corso di definizione);http://gis.osservatorioturistico.sicilia.it/doc/testi/schede_archeo/Lilibeo_iside_eng.pdf
Marsala;12.428253;37.800687;Grotta della Sibilla;Lungomare Boeo - Chiesa di S. Giovanni Battista;Parco archeologico di Lilibeo - Marsala;http://www.regione.sicilia.it/beniculturali/dirbenicult/database/page_musei/pagina_musei.asp?ID=32&IdSito=88;imperiale;"Grotta; Santuario";Visite su richiesta - per la prenotazione rivolgersi al personale o telefonare allo 0923 952535;0923 952535;museo.lilibeo@regione.sicilia.it, polomuseale.tp.uo3@regione.sicilia.it;https://www.facebook.com/museo.lilibeo/;4.0;2.0;Da Mar. a Ven. 9.00-13.00 (Visite su richiesta);http://gis.osservatorioturistico.sicilia.it/doc/testi/schede_archeo/Lilibeo_sibilla.pdf;http://gis.osservatorioturistico.sicilia.it/doc/foto/archeo/ico/Lilibeo_sibilla.jpg;(parco in corso di definizione);http://gis.osservatorioturistico.sicilia.it/doc/testi/schede_archeo/Lilibeo_sibilla_eng.pdf
Lipari;14.953734;38.467859;Impianto termale;Via Monsignore Bernardino Re;Parco archeologico delle Isole Eolie;http://www.regione.sicilia.it/beniculturali/museolipari/pagina.asp;"ellenistica; imperiale";Terme;;;nan;;0.0;0.0;;http://gis.osservatorioturistico.sicilia.it/doc/testi/schede_archeo/Lipari_impiantotermale.pdf;http://gis.osservatorioturistico.sicilia.it/doc/foto/archeo/ico/Lipari_impiantotermale.jpg;(parco in corso di definizione);http://gis.osservatorioturistico.sicilia.it/doc/testi/schede_archeo/Lipari_impiantotermale_eng.pdf
Lipari;14.954078;38.465608;Cinta muraria greca;Via Avvocato Maggiore;Parco archeologico delle Isole Eolie;http://www.regione.sicilia.it/beniculturali/museolipari/pagina.asp;"arcaica; classica; ellenistica";Fortificazioni;Osservabile dalla strada;;nan;;0.0;0.0;Chiuso;http://gis.osservatorioturistico.sicilia.it/doc/testi/schede_archeo/Lipari_muragreche.pdf;http://gis.osservatorioturistico.sicilia.it/doc/foto/archeo/ico/Lipari_muragreche.jpg;(parco in corso di definizione);http://gis.osservatorioturistico.sicilia.it/doc/testi/schede_archeo/Lipari_muragreche_eng.pdf
Lipari;14.953953;38.467092;Parco archeologico di C.da Diana;Via Madre Florenza Profilo;Parco archeologico delle Isole Eolie;http://www.regione.sicilia.it/beniculturali/museolipari/pagina.asp;"arcaica; classica; ellenistica; imperiale";Necropoli;;;nan;;0.0;0.0;Tutti i giorni;http://gis.osservatorioturistico.sicilia.it/doc/testi/schede_archeo/Lipari_contradadiana.pdf;http://gis.osservatorioturistico.sicilia.it/doc/foto/archeo/ico/Lipari_contradadiana.jpg;(parco in corso di definizione);http://gis.osservatorioturistico.sicilia.it/doc/testi/schede_archeo/Lipari_contradadiana_eng.pdf
Lipari;14.952614;38.466328;Necropoli greca e tardo romana;Via Gugliemo Marconi;Parco archeologico delle Isole Eolie;http://www.luigibernabobrea.it/luoghi/lipari_necropoli2.html;"arcaica; classica; ellenistica; imperiale";Necropoli;;;nan;;0.0;0.0;Chiuso, osservabile dalla strada.;http://gis.osservatorioturistico.sicilia.it/doc/testi/schede_archeo/Lipari_contradadiana.pdf;http://gis.osservatorioturistico.sicilia.it/doc/foto/archeo/ico/Lipari_necropoligrecoromana.jpg;(parco in corso di definizione);http://gis.osservatorioturistico.sicilia.it/doc/testi/schede_archeo/Lipari_contradadiana_eng.pdf
Lipari;14.952359;38.465336;Necropoli Zagami;C.da Zagami, Via Isa Conti Effer Vaincher;Parco archeologico delle Isole Eolie;http://www.luigibernabobrea.it/luoghi/lipari_necropoli2.html;"arcaica; classica; ellenistica; imperiale";Necropoli;"All'interno di un complesso residenziale; visitabile su richiesta";;nan;;Non Disponibile;Non Disponibile;Chiuso;http://gis.osservatorioturistico.sicilia.it/doc/testi/schede_archeo/Lipari_zagami.pdf;http://gis.osservatorioturistico.sicilia.it/doc/foto/archeo/ico/Lipari_zagami.jpg;(parco in corso di definizione);http://gis.osservatorioturistico.sicilia.it/doc/testi/schede_archeo/Lipari_zagami_eng.pdf
Lipari;14.580598;38.556795;Insediamento di Filo Braccio;Istmo di Filo Braccio, Isoal di Filicudi;Parco archeologico delle Isole Eolie;http://www.archiviostoricoeoliano.it/sites/www.archiviostoricoeoliano.it/files/martinelli%20pdf%20contributo%20origini%20Copy_2.pdf;preistorica;Abitato;;;nan;;0.0;0.0;;http://gis.osservatorioturistico.sicilia.it/doc/testi/schede_archeo/Filicudi_filobraccio.pdf;http://gis.osservatorioturistico.sicilia.it/doc/foto/archeo/ico/Filicudi_filobraccio.jpg;(parco in corso di definizione);http://gis.osservatorioturistico.sicilia.it/doc/testi/schede_archeo/Filicudi_filobraccio_eng.pdf
Lipari;14.957154;38.4671;Acropoli;via Castello;Parco archeologico delle Isole Eolie;http://www.luigibernabobrea.it/luoghi/lipari_acropoli.html;"arcaica; classica; ellenistica";Abitato;;;nan;;0.0;0.0;;http://gis.osservatorioturistico.sicilia.it/doc/testi/schede_archeo/Lipari_acropoli.pdf;http://gis.osservatorioturistico.sicilia.it/doc/foto/archeo/ico/Lipari_acropoli.jpg;(parco in corso di definizione);http://gis.osservatorioturistico.sicilia.it/doc/testi/schede_archeo/Lipari_acropoli_eng.pdf
Lipari;14.909906;38.477925;Terme di San Calogero;C.da San Calogero;Parco archeologico delle Isole Eolie;http://www.luigibernabobrea.it/luoghi/lipari_stufa.html;preistorica, imperiale;Terme;;;nan;;Non Disponibile;Non Disponibile;Chiuso;http://gis.osservatorioturistico.sicilia.it/doc/testi/schede_archeo/Lipari_termesancalogero.pdf;http://gis.osservatorioturistico.sicilia.it/doc/foto/archeo/ico/Lipari_termesancalogero.jpg;(parco in corso di definizione);http://gis.osservatorioturistico.sicilia.it/doc/testi/schede_archeo/Lipari_termesancalogero_eng.pdf
Lipari;15.063652;38.625532;Capo Milazzese;Punta Milazzese, Isola di Panarea;Parco archeologico delle Isole Eolie;http://www.luigibernabobrea.it/luoghi/panarea.html;preistorica;Abitato;;;nan;;0.0;0.0;;http://gis.osservatorioturistico.sicilia.it/doc/testi/schede_archeo/Panarea_villaggio.pdf;http://gis.osservatorioturistico.sicilia.it/doc/foto/archeo/ico/Panarea_villaggio.jpg;(parco in corso di definizione);http://gis.osservatorioturistico.sicilia.it/doc/testi/schede_archeo/Panarea_villaggio_eng.pdf
Lipari;14.588367;38.55698;Villaggio della Montagnola;Capo Graziano, Isola di Filicudi;Parco archeologico delle Isole Eolie;http://www.luigibernabobrea.it/luoghi/filicudi.html;preistorica;Abitato;;;nan;;0.0;0.0;;http://gis.osservatorioturistico.sicilia.it/doc/testi/schede_archeo/Filicudi_montagnola.pdf;http://gis.osservatorioturistico.sicilia.it/doc/foto/archeo/ico/Filicudi_montagnola.jpg;(parco in corso di definizione);http://gis.osservatorioturistico.sicilia.it/doc/testi/schede_archeo/Filicudi_montagnola_eng.pdf
Lipari;14.956949;38.467472;Villaggio età del Bronzo;via Castello;Parco archeologico delle Isole Eolie;http://www.luigibernabobrea.it/luoghi/lipari_acropoli.html;preistorica;Abitato;;;nan;;0.0;0.0;;http://gis.osservatorioturistico.sicilia.it/doc/testi/schede_archeo/Lipari_villaggiobronzo.pdf;http://gis.osservatorioturistico.sicilia.it/doc/foto/archeo/ico/Lipari_villaggiobronzo.jpg;(parco in corso di definizione);http://gis.osservatorioturistico.sicilia.it/doc/testi/schede_archeo/Lipari_villaggiobronzo_eng.pdf
Gela;14.223388;37.071433;Mura Timoleontee di Capo Soprano;Capo Soprano, C.da Scavone, Viale Indipendenza;Parco archeologico di Gela;http://www.regione.sicilia.it/beniculturali/dirbenicult/database/page_musei/pagina_musei.asp?ID=320&IdSito=20;"arcaica; classica; ellenistica";Fortificazioni;Ingresso gratuito a tutti per la prima domenica di ogni mese, fino alle ore 13,00 (ultimo ingresso ore 12,30). Biglietto unico con il Museo Archeologico Regionale di Gela.;093391226 - 0933930975;nan;;4.0;2.0;In ora solare, dal lunedì al sabato, dalle 9,00 alle 13,00 e dalle 14,00 alle 17,00 (ultimo ingresso ore 16,30).;http://gis.osservatorioturistico.sicilia.it/doc/testi/schede_archeo/Gela_caposoprano.pdf;http://gis.osservatorioturistico.sicilia.it/doc/foto/archeo/ico/Gela_caposoprano.jpg;(parco in corso di definizione);http://gis.osservatorioturistico.sicilia.it/doc/testi/schede_archeo/Gela_caposoprano_eng.pdf
Gela;14.258358;37.062939;Acropoli Molino a Vento;C.da Molino a Vento, Corso Vittorio Emanuele 1;Parco archeologico di Gela;http://www.regione.sicilia.it/beniculturali/dirbenicult/database/page_musei/pagina_musei.asp?ID=37&IdSito=22;"arcaica; classica; ellenistica";Abitato;Ingresso gratuito a tutti per la prima domenica di ogni mese, fino alle ore 13,00 (ultimo ingresso ore 12,30). Biglietto unico con il Museo Archeologico Regionale di Gela.;0933912626;nan;;4.0;2.0;In ora solare, dal lunedì al sabato, dalle 9,00 alle 13,00 e dalle 14,00 alle 17,00. Ultimo ingresso mezzora prima della chiusura. Domeniche e festivi chiuso.;http://gis.osservatorioturistico.sicilia.it/doc/testi/schede_archeo/Gela_acropoli.pdf;http://gis.osservatorioturistico.sicilia.it/doc/foto/archeo/ico/Gela_acropoli.jpg;(parco in corso di definizione);http://gis.osservatorioturistico.sicilia.it/doc/testi/schede_archeo/Gela_acropoli_eng.pdf
Gela;14.254591;37.061756;Bosco Littorio;C.da Bosco Littorio;Parco archeologico di Gela;http://www.regione.sicilia.it/beniculturali/dirbenicult/database/page_musei/pagina_musei.asp?ID=146&IdSito=24;"arcaica; classica";Abitato;;0933912626;nan;;Non Disponibile;Non Disponibile;Chiuso temporaneamente;http://gis.osservatorioturistico.sicilia.it/doc/testi/schede_archeo/Gela_boscolittorio.pdf;http://gis.osservatorioturistico.sicilia.it/doc/foto/archeo/ico/Gela_boscolittorio.jpg;(parco in corso di definizione);http://gis.osservatorioturistico.sicilia.it/doc/testi/schede_archeo/Gela_boscolittorio_eng.pdf
Gela;14.230443;37.0726;Bagni Greci;Via Europa;Parco archeologico di Gela;http://www.regione.sicilia.it/beniculturali/dirbenicult/database/page_musei/pagina_musei.asp?ID=145&IdSito=23;"classica; ellenistica";Terme;Sito non custodito situato all'interno della struttura Casa di Riposo ''Antonietta Aldisio'';0933912626;nan;;0.0;0.0;Libero accesso tutti i giorni dalle 9,00 alle 14,00 e dalle 15,00 alle 20,00;http://gis.osservatorioturistico.sicilia.it/doc/testi/schede_archeo/Gela_bagnigreci.pdf;http://gis.osservatorioturistico.sicilia.it/doc/foto/archeo/ico/Gela_bagnigreci.jpg;(parco in corso di definizione);http://gis.osservatorioturistico.sicilia.it/doc/testi/schede_archeo/Gela_bagnigreci_eng.pdf
Mazzarino;14.291613;37.317241;Basilica;C.da Sophiana, S.P. 25;Area archeologica di Sophiana;http://www.regione.sicilia.it/beniculturali/dirbenicult/database/page_musei/pagina_musei.asp?ID=165&IdSito=129;"romana; tardo antica; medievale";Edificio religioso;Chiuso al pubblico. Per informazioni urpmuseo.casale@regione.sicilia.it oppure visita www.villaromanadelcasale.it.;0935 687667;nan;;0.0;0.0;Visitabile su prenotazione;http://gis.osservatorioturistico.sicilia.it/doc/testi/schede_archeo/Sophiana_basilica.pdf;http://gis.osservatorioturistico.sicilia.it/doc/foto/archeo/ico/Sophiana_basilica.jpg;;http://gis.osservatorioturistico.sicilia.it/doc/testi/schede_archeo/Sophiana_basilica_eng.pdf
Mazzarino;14.295713;37.318879;Terme;C.da Sophiana, S.P. 25;Area archeologica di Sophiana;http://www.regione.sicilia.it/beniculturali/dirbenicult/database/page_musei/pagina_musei.asp?ID=165&IdSito=129;"imperiale; tardo antica; medievale";Terme;Chiuso al pubblico. Per informazioni urpmuseo.casale@regione.sicilia.it oppure visita www.villaromanadelcasale.it.;0935 687667;nan;;0.0;0.0;Visitabile su prenotazione;http://gis.osservatorioturistico.sicilia.it/doc/testi/schede_archeo/Sophiana_terme.pdf;http://gis.osservatorioturistico.sicilia.it/doc/foto/archeo/ico/Sophiana_terme.jpg;;http://gis.osservatorioturistico.sicilia.it/doc/testi/schede_archeo/Sophiana_terme_eng.pdf
Mazzarino;14.295816;37.319334;Casa;C.da Sophiana, S.P. 25;Area archeologica di Sophiana;http://www.regione.sicilia.it/beniculturali/dirbenicult/database/page_musei/pagina_musei.asp?ID=165&IdSito=129;"ellenistica; romana; tardo antica; medievale";Casa;Chiuso al pubblico. Per informazioni urpmuseo.casale@regione.sicilia.it oppure visita www.villaromanadelcasale.it.;0935 687667;nan;;0.0;0.0;Visitabile su prenotazione;http://gis.osservatorioturistico.sicilia.it/doc/testi/schede_archeo/Sophiana_casa.pdf;http://gis.osservatorioturistico.sicilia.it/doc/foto/archeo/ico/Sophiana_case.jpg;;http://gis.osservatorioturistico.sicilia.it/doc/testi/schede_archeo/Sophiana_casa_eng.pdf
Sambuca di Sicilia;13.139975;37.685204;Fortificazioni;Contrada Adragna;Area archeologica di Monte Adranone;http://museoarcheologicopalazzopanitteri.webserviceprovideo.com/le-fortificazioni/;classica;Fortificazioni;Il biglietto comprende l'ingresso alla zona archeologica di Monte Adranone / Museo di Palazzo Panitteri (Sambuca di Sicilia) / Antiquarium di Monte Kronio (Sciacca).;0925 946083;nan;;6.0;3.0;Tutti i giorni feriali dalle 8,30 alle 19. I giorni festivi aperto solo la prima domenica del mese dalle 8,30 alle 13,30.;http://gis.osservatorioturistico.sicilia.it/doc/testi/schede_archeo/Adranone_fortificazioni.pdf;http://gis.osservatorioturistico.sicilia.it/doc/foto/archeo/ico/Adranone_fortificazioni.jpg;;http://gis.osservatorioturistico.sicilia.it/doc/testi/schede_archeo/Adranone_fortificazioni_eng.pdf
Sambuca di Sicilia;13.140356;37.687271;Settore centrale - Abitato;Contrada Adragna;Area archeologica di Monte Adranone;http://museoarcheologicopalazzopanitteri.webserviceprovideo.com/il-settore-centrale/;classica, ellenistica;Abitato;Il biglietto comprende l'ingresso alla zona archeologica di Monte Adranone / Museo di Palazzo Panitteri (Sambuca di Sicilia) / Antiquarium di Monte Kronio (Sciacca).;0925 946083;nan;;6.0;3.0;Tutti i giorni feriali dalle 8,30 alle 19. I giorni festivi aperto solo la prima domenica del mese dalle 8,30 alle 13,30.;http://gis.osservatorioturistico.sicilia.it/doc/testi/schede_archeo/Adranone_settorecentrale.pdf;http://gis.osservatorioturistico.sicilia.it/doc/foto/archeo/ico/Adranone_settorecentrale.jpg;;http://gis.osservatorioturistico.sicilia.it/doc/testi/schede_archeo/Adranone_settorecentrale_eng.pdf
Sambuca di Sicilia;13.142306;37.687318;Terrazzo I - Abitato;Contrada Adragna;Area archeologica di Monte Adranone;http://museoarcheologicopalazzopanitteri.webserviceprovideo.com/il-terrazzo-i/;classica, ellenistica;Abitato;Il biglietto comprende l'ingresso alla zona archeologica di Monte Adranone / Museo di Palazzo Panitteri (Sambuca di Sicilia) / Antiquarium di Monte Kronio (Sciacca).;0925 946083;nan;;6.0;3.0;Tutti i giorni feriali dalle 8,30 alle 19. I giorni festivi aperto solo la prima domenica del mese dalle 8,30 alle 13,30.;http://gis.osservatorioturistico.sicilia.it/doc/testi/schede_archeo/Adranone_terrazzo1.pdf;http://gis.osservatorioturistico.sicilia.it/doc/foto/archeo/ico/Adranone_terrazzo1.jpg;;http://gis.osservatorioturistico.sicilia.it/doc/testi/schede_archeo/Adranone_terrazzo1_eng.pdf
Sambuca di Sicilia;13.143602;37.687634;Terrazzo II - Abitato;Contrada Adragna;Area archeologica di Monte Adranone;http://museoarcheologicopalazzopanitteri.webserviceprovideo.com/il-terrazzo-ii/;classica, ellenistica;Abitato;Il biglietto comprende l'ingresso alla zona archeologica di Monte Adranone / Museo di Palazzo Panitteri (Sambuca di Sicilia) / Antiquarium di Monte Kronio (Sciacca).;0925 946083;nan;;6.0;3.0;Tutti i giorni feriali dalle 8,30 alle 19. I giorni festivi aperto solo la prima domenica del mese dalle 8,30 alle 13,30.;http://gis.osservatorioturistico.sicilia.it/doc/testi/schede_archeo/Adranone_terrazzo2.pdf;http://gis.osservatorioturistico.sicilia.it/doc/foto/archeo/ico/Adranone_terrazzo2.jpg;;http://gis.osservatorioturistico.sicilia.it/doc/testi/schede_archeo/Adranone_terrazzo2_eng.pdf
Sambuca di Sicilia;13.144574;37.687746;Tempio Punico Acropoli;Contrada Adragna;Area archeologica di Monte Adranone;http://museoarcheologicopalazzopanitteri.webserviceprovideo.com/lacropoli/;classica, ellenistica;Tempio;Il biglietto comprende l'ingresso alla zona archeologica di Monte Adranone / Museo di Palazzo Panitteri (Sambuca di Sicilia) / Antiquarium di Monte Kronio (Sciacca).;0925 946083;nan;;6.0;3.0;Tutti i giorni feriali dalle 8,30 alle 19. I giorni festivi aperto solo la prima domenica del mese dalle 8,30 alle 13,30.;http://gis.osservatorioturistico.sicilia.it/doc/testi/schede_archeo/Adranone_tempioacropoli.pdf;http://gis.osservatorioturistico.sicilia.it/doc/foto/archeo/ico/Adranone_tempioacropoli.jpg;;http://gis.osservatorioturistico.sicilia.it/doc/testi/schede_archeo/Adranone_tempioacropoli_eng.pdf
Sambuca di Sicilia;13.139502;37.683806;Necropoli;Contrada Adragna;Area archeologica di Monte Adranone;http://museoarcheologicopalazzopanitteri.webserviceprovideo.com/la-necropoli/;classica, ellenistica;Necropoli;Il biglietto comprende l'ingresso alla zona archeologica di Monte Adranone / Museo di Palazzo Panitteri (Sambuca di Sicilia) / Antiquarium di Monte Kronio (Sciacca).;0925 946083;nan;;6.0;3.0;Tutti i giorni feriali dalle 8,30 alle 19. I giorni festivi aperto solo la prima domenica del mese dalle 8,30 alle 13,30.;http://gis.osservatorioturistico.sicilia.it/doc/testi/schede_archeo/Adranone_necropoli.pdf;http://gis.osservatorioturistico.sicilia.it/doc/foto/archeo/ico/Adranone_necropoli.jpg;;http://gis.osservatorioturistico.sicilia.it/doc/testi/schede_archeo/Adranone_necropoli_eng.pdf
Sambuca di Sicilia;13.140372;37.685022;Fattoria;Contrada Adragna;Area archeologica di Monte Adranone;http://museoarcheologicopalazzopanitteri.webserviceprovideo.com/la-fattoria/;classica, ellenistica;Casa;Il biglietto comprende l'ingresso alla zona archeologica di Monte Adranone / Museo di Palazzo Panitteri (Sambuca di Sicilia) / Antiquarium di Monte Kronio (Sciacca).;0925 946083;nan;;6.0;3.0;Tutti i giorni feriali dalle 8,30 alle 19. I giorni festivi aperto solo la prima domenica del mese dalle 8,30 alle 13,30.;http://gis.osservatorioturistico.sicilia.it/doc/testi/schede_archeo/Adranone_fattoria.pdf;http://gis.osservatorioturistico.sicilia.it/doc/foto/archeo/ico/Adranone_fattoria.jpg;;http://gis.osservatorioturistico.sicilia.it/doc/testi/schede_archeo/Adranone_fattoria_eng.pdf
Sambuca di Sicilia;13.140136;37.685307;Santuario divinità ctonie;Contrada Adragna;Area archeologica di Monte Adranone;http://museoarcheologicopalazzopanitteri.webserviceprovideo.com/il-santuario/;classica, ellenistica;Santuario;Il biglietto comprende l'ingresso alla zona archeologica di Monte Adranone / Museo di Palazzo Panitteri (Sambuca di Sicilia) / Antiquarium di Monte Kronio (Sciacca).;0925 946083;nan;;6.0;3.0;Tutti i giorni feriali dalle 8,30 alle 19. I giorni festivi aperto solo la prima domenica del mese dalle 8,30 alle 13,30.;http://gis.osservatorioturistico.sicilia.it/doc/testi/schede_archeo/Adranone_santuarioextra.pdf;http://gis.osservatorioturistico.sicilia.it/doc/foto/archeo/ico/Adranone_santuarioextra.jpg;;http://gis.osservatorioturistico.sicilia.it/doc/testi/schede_archeo/Adranone_santuarioextra_eng.pdf
San Cataldo;13.946782;37.472685;Santuario di Demetra e Kore;C.da Vassallaggi;Area archeologica di Vassallaggi;http://www.regione.sicilia.it/beniculturali/dirbenicult/database/page_musei/pagina_musei.asp?ID=164&IdSito=25;"arcaica; classica";Santuario;;0934554968-70;nan;;0.0;0.0;Visitabile su prenotazione inviando richiesta a: sopricl@regione.sicilia.it;http://gis.osservatorioturistico.sicilia.it/doc/testi/schede_archeo/Vassallaggi_santuario.pdf;http://gis.osservatorioturistico.sicilia.it/doc/foto/archeo/ico/Vassallaggi_santuario.jpg;;http://gis.osservatorioturistico.sicilia.it/doc/testi/schede_archeo/Vassallaggi_santuario_eng.pdf
Caltanissetta;14.121105;37.50276;Abitato;C.da Sabucina;Area archeologica e Antiquarium di Sabucina;http://www.regione.sicilia.it/beniculturali/dirbenicult/database/page_musei/pagina_musei.asp?ID=36&IdSito=17;"arcaica; classica; ellenistica";Abitato;;0934554968-70;nan;;0.0;0.0;Visitabile su prenotazione inviando richiesta a: sopricl@regione.sicilia.it;http://gis.osservatorioturistico.sicilia.it/doc/testi/schede_archeo/Sabucina_abitato.pdf;http://gis.osservatorioturistico.sicilia.it/doc/foto/archeo/ico/Sabucina_abitato.jpg;;http://gis.osservatorioturistico.sicilia.it/doc/testi/schede_archeo/Sabucina_abitato_eng.pdf
Caltanissetta;14.119237;37.502433;Santuario delle divinità ctonie;C.da Sabucina;Area archeologica e Antiquarium di Sabucina;http://www.regione.sicilia.it/beniculturali/dirbenicult/database/page_musei/pagina_musei.asp?ID=36&IdSito=17;"arcaica; classica; ellenistica";Santuario;;0934554968-70;nan;;0.0;0.0;Visitabile su prenotazione inviando richiesta a: sopricl@regione.sicilia.it;http://gis.osservatorioturistico.sicilia.it/doc/testi/schede_archeo/Sabucina_santuario.pdf;http://gis.osservatorioturistico.sicilia.it/doc/foto/archeo/ico/Sabucina_santuario.jpg;;http://gis.osservatorioturistico.sicilia.it/doc/testi/schede_archeo/Sabucina_santuario_eng.pdf
Calatafimi Segesta;12.832422;37.941437;Tempio;C.da Barbaro - Case Barbaro - SP 68;Parco archeologico di Segesta;http://www.regione.sicilia.it/beniculturali/dirbenicult/database/page_musei/pagina_musei.asp?ID=57&IdSito=91;classica;Tempio;"Ultimo ingresso un'ora prima della chiusura. Ingresso gratuito per i minorenni e gli over 65; ridotto per 18-25 anni.";0924952356;urp.parco.archeo.segesta@regione.sicilia.it, parco.archeo.segesta@regione.sicilia.it;https://www.facebook.com/pg/Parco-archeologico-di-Segesta-Beni-culturali-879517822142259/about/?ref=page_internal;6.0;3.0;"Apertura: 9.00. Chiusura: fino al 29/02 ore 17; 1-26/03 ore 18,30; 27/03-2/10 ore 19.30; 3-31/10 ore 18,30; 1-31/12 ore 17.";http://gis.osservatorioturistico.sicilia.it/doc/testi/schede_archeo/Segesta_tempio.pdf;http://gis.osservatorioturistico.sicilia.it/doc/foto/archeo/ico/Segesta_tempio.jpg;;http://gis.osservatorioturistico.sicilia.it/doc/testi/schede_archeo/Segesta_tempio_eng.pdf
Calatafimi Segesta;12.837167;37.940076;Porta a Valle;C.da Barbaro - Case Barbaro - SP 68;Parco archeologico di Segesta;http://www.regione.sicilia.it/beniculturali/dirbenicult/database/page_musei/pagina_musei.asp?ID=57&IdSito=91;ellenistica;Fortificazioni;"Ultimo ingresso un'ora prima della chiusura. Ingresso gratuito per i minorenni e gli over 65; ridotto per 18-25 anni.";0924952356;urp.parco.archeo.segesta@regione.sicilia.it, parco.archeo.segesta@regione.sicilia.it;https://www.facebook.com/pg/Parco-archeologico-di-Segesta-Beni-culturali-879517822142259/about/?ref=page_internal;6.0;3.0;"Apertura: 9.00. Chiusura: fino al 29/02 ore 17; 1-26/03 ore 18,30; 27/03-2/10 ore 19.30; 3-31/10 ore 18,30; 1-31/12 ore 17.";http://gis.osservatorioturistico.sicilia.it/doc/testi/schede_archeo/Segesta_portavalle.pdf;http://gis.osservatorioturistico.sicilia.it/doc/foto/archeo/ico/Segesta_portavalle.jpg;;http://gis.osservatorioturistico.sicilia.it/doc/testi/schede_archeo/Segesta_portavalle_eng.pdf
Calatafimi Segesta;12.842606;37.939678;Agorà;C.da Barbaro - Case Barbaro - SP 68;Parco archeologico di Segesta;http://www.regione.sicilia.it/beniculturali/dirbenicult/database/page_musei/pagina_musei.asp?ID=57&IdSito=91;"ellenistica; imperiale";Area pubblica civile;"Ultimo ingresso un'ora prima della chiusura. Ingresso gratuito per i minorenni e gli over 65; ridotto per 18-25 anni.";0924952356;urp.parco.archeo.segesta@regione.sicilia.it, parco.archeo.segesta@regione.sicilia.it;https://www.facebook.com/pg/Parco-archeologico-di-Segesta-Beni-culturali-879517822142259/about/?ref=page_internal;6.0;3.0;"Apertura: 9.00. Chiusura: fino al 29/02 ore 17; 1-26/03 ore 18,30; 27/03-2/10 ore 19.30; 3-31/10 ore 18,30; 1-31/12 ore 17.";http://gis.osservatorioturistico.sicilia.it/doc/testi/schede_archeo/Segesta_agora.pdf;http://gis.osservatorioturistico.sicilia.it/doc/foto/archeo/ico/Segesta_agora.jpg;;http://gis.osservatorioturistico.sicilia.it/doc/testi/schede_archeo/Segesta_agora_eng.pdf
Calatafimi Segesta;12.843381;37.940523;Basilica;C.da Barbaro - Case Barbaro - SP 68;Parco archeologico di Segesta;http://www.regione.sicilia.it/beniculturali/dirbenicult/database/page_musei/pagina_musei.asp?ID=57&IdSito=91;medievale;Edificio religioso;"Ultimo ingresso un'ora prima della chiusura. Ingresso gratuito per i minorenni e gli over 65; ridotto per 18-25 anni.";0924952356;urp.parco.archeo.segesta@regione.sicilia.it, parco.archeo.segesta@regione.sicilia.it;https://www.facebook.com/pg/Parco-archeologico-di-Segesta-Beni-culturali-879517822142259/about/?ref=page_internal;6.0;3.0;"Apertura: 9.00. Chiusura: fino al 29/02 ore 17; 1-26/03 ore 18,30; 27/03-2/10 ore 19.30; 3-31/10 ore 18,30; 1-31/12 ore 17.";http://gis.osservatorioturistico.sicilia.it/doc/testi/schede_archeo/Segesta_basilica.pdf;http://gis.osservatorioturistico.sicilia.it/doc/foto/archeo/ico/Segesta_basilica.jpg;;http://gis.osservatorioturistico.sicilia.it/doc/testi/schede_archeo/Segesta_basilica_eng.pdf
Calatafimi Segesta;12.843868;37.940301;Castello;C.da Barbaro - Case Barbaro - SP 68;Parco archeologico di Segesta;http://www.regione.sicilia.it/beniculturali/dirbenicult/database/page_musei/pagina_musei.asp?ID=57&IdSito=91;medievale;Fortificazioni;"Ultimo ingresso un'ora prima della chiusura. Ingresso gratuito per i minorenni e gli over 65; ridotto per 18-25 anni.";0924952356;urp.parco.archeo.segesta@regione.sicilia.it, parco.archeo.segesta@regione.sicilia.it;https://www.facebook.com/pg/Parco-archeologico-di-Segesta-Beni-culturali-879517822142259/about/?ref=page_internal;6.0;3.0;"Apertura: 9.00. Chiusura: fino al 29/02 ore 17; 1-26/03 ore 18,30; 27/03-2/10 ore 19.30; 3-31/10 ore 18,30; 1-31/12 ore 17.";http://gis.osservatorioturistico.sicilia.it/doc/testi/schede_archeo/Segesta_castello.pdf;http://gis.osservatorioturistico.sicilia.it/doc/foto/archeo/ico/Segesta_castello.jpg;;http://gis.osservatorioturistico.sicilia.it/doc/testi/schede_archeo/Segesta_castello_eng.pdf
Calatafimi Segesta;12.843872;37.941097;Teatro;C.da Barbaro - Case Barbaro - SP 68;Parco archeologico di Segesta;http://www.regione.sicilia.it/beniculturali/dirbenicult/database/page_musei/pagina_musei.asp?ID=57&IdSito=91;ellenistica;Teatro;"Ultimo ingresso un'ora prima della chiusura. Ingresso gratuito per i minorenni e gli over 65; ridotto per 18-25 anni.";0924952356;urp.parco.archeo.segesta@regione.sicilia.it, parco.archeo.segesta@regione.sicilia.it;https://www.facebook.com/pg/Parco-archeologico-di-Segesta-Beni-culturali-879517822142259/about/?ref=page_internal;6.0;3.0;"Apertura: 9.00. Chiusura: fino al 29/02 ore 17; 1-26/03 ore 18,30; 27/03-2/10 ore 19.30; 3-31/10 ore 18,30; 1-31/12 ore 17.";http://gis.osservatorioturistico.sicilia.it/doc/testi/schede_archeo/Segesta_teatro.pdf;http://gis.osservatorioturistico.sicilia.it/doc/foto/archeo/ico/Segesta_teatro.jpg;;http://gis.osservatorioturistico.sicilia.it/doc/testi/schede_archeo/Segesta_teatro_eng.pdf
Calatafimi Segesta;12.843536;37.939978;Moschea;C.da Barbaro - Case Barbaro - SP 68;Parco archeologico di Segesta;http://www.regione.sicilia.it/beniculturali/dirbenicult/database/page_musei/pagina_musei.asp?ID=57&IdSito=91;medievale;Edificio religioso;"Ultimo ingresso un'ora prima della chiusura. Ingresso gratuito per i minorenni e gli over 65; ridotto per 18-25 anni.";0924952356;urp.parco.archeo.segesta@regione.sicilia.it, parco.archeo.segesta@regione.sicilia.it;https://www.facebook.com/pg/Parco-archeologico-di-Segesta-Beni-culturali-879517822142259/about/?ref=page_internal;6.0;3.0;"Apertura: 9.00. Chiusura: fino al 29/02 ore 17; 1-26/03 ore 18,30; 27/03-2/10 ore 19.30; 3-31/10 ore 18,30; 1-31/12 ore 17.";http://gis.osservatorioturistico.sicilia.it/doc/testi/schede_archeo/Segesta_moschea.pdf;http://gis.osservatorioturistico.sicilia.it/doc/foto/archeo/ico/Segesta_moschea.jpg;;http://gis.osservatorioturistico.sicilia.it/doc/testi/schede_archeo/Segesta_moschea_eng.pdf
Castelvetrano;12.825291;37.582442;Templi A ed O;Marinella di Selinunte - Via Selinunte;Parco archeologico di Selinunte e Cave di Cusa;http://www.regione.sicilia.it/beniculturali/dirbenicult/database/page_musei/pagina_musei.asp?ID=121&IdSito=0&IdC=2436&IdS=30&IdAS=120;classica;Tempio;Pagamento ingresso alle aree del Parco: contanti e POS allo sportello della biglietteria, bonifico bancario.;092446277;parco.archeo.selinunte@regione.sicilia.it;https://www.facebook.com/PARCO-ARCHEOLOGICO-DI-SELINUNTE-E-CAVE-DI-CUSA-234349746433/;6.0;3.0;Apertura alle 9,00. Dall'1/03 chiusura ore 17,00 (uscita entro le 18,00). Dal 26/03 chiusura ore 18,00 (uscita entro le 19).;http://gis.osservatorioturistico.sicilia.it/doc/testi/schede_archeo/Selinunte_templiao.pdf;http://gis.osservatorioturistico.sicilia.it/doc/foto/archeo/ico/Selinunte_templiao.jpg;;http://gis.osservatorioturistico.sicilia.it/doc/testi/schede_archeo/Selinunte_templiao_eng.pdf
Castelvetrano;12.826482;37.58363;Muraglione a gradini e stoà;Marinella di Selinunte - Via Selinunte;Parco archeologico di Selinunte e Cave di Cusa;http://www.regione.sicilia.it/beniculturali/dirbenicult/database/page_musei/pagina_musei.asp?ID=121&IdSito=0&IdC=2436&IdS=30&IdAS=120;arcaica;Edificio pubblico civile;Pagamento ingresso alle aree del Parco: contanti e POS allo sportello della biglietteria, bonifico bancario.;092446277;parco.archeo.selinunte@regione.sicilia.it;https://www.facebook.com/PARCO-ARCHEOLOGICO-DI-SELINUNTE-E-CAVE-DI-CUSA-234349746433/;6.0;3.0;Apertura alle 9,00. Dall'1/03 chiusura ore 17,00 (uscita entro le 18,00). Dal 26/03 chiusura ore 18,00 (uscita entro le 19).;http://gis.osservatorioturistico.sicilia.it/doc/testi/schede_archeo/Selinunte_stoa.pdf;http://gis.osservatorioturistico.sicilia.it/doc/foto/archeo/ico/Selinunte_stoa.jpg;;http://gis.osservatorioturistico.sicilia.it/doc/testi/schede_archeo/Selinunte_stoa_eng.pdf
Castelvetrano;12.825336;37.583158;Tempio C;Marinella di Selinunte - Via Selinunte;Parco archeologico di Selinunte e Cave di Cusa;http://www.regione.sicilia.it/beniculturali/dirbenicult/database/page_musei/pagina_musei.asp?ID=121&IdSito=0&IdC=2436&IdS=30&IdAS=120;arcaica;Santuario;Pagamento ingresso alle aree del Parco: contanti e POS allo sportello della biglietteria, bonifico bancario.;092446277;parco.archeo.selinunte@regione.sicilia.it;https://www.facebook.com/PARCO-ARCHEOLOGICO-DI-SELINUNTE-E-CAVE-DI-CUSA-234349746433/;6.0;3.0;Apertura alle 9,00. Dall'1/03 chiusura ore 17,00 (uscita entro le 18,00). Dal 26/03 chiusura ore 18,00 (uscita entro le 19).;http://gis.osservatorioturistico.sicilia.it/doc/testi/schede_archeo/Selinunte_tempioc.pdf;http://gis.osservatorioturistico.sicilia.it/doc/foto/archeo/ico/Selinunte_tempioc.jpg;;http://gis.osservatorioturistico.sicilia.it/doc/testi/schede_archeo/Selinunte_tempioc_eng.pdf
Castelvetrano;12.825067;37.583597;Tempio D;Marinella di Selinunte - Via Selinunte;Parco archeologico di Selinunte e Cave di Cusa;http://www.regione.sicilia.it/beniculturali/dirbenicult/database/page_musei/pagina_musei.asp?ID=121&IdSito=0&IdC=2436&IdS=30&IdAS=120;arcaica;Santuario;Pagamento ingresso alle aree del Parco: contanti e POS allo sportello della biglietteria, bonifico bancario.;092446277;parco.archeo.selinunte@regione.sicilia.it;https://www.facebook.com/PARCO-ARCHEOLOGICO-DI-SELINUNTE-E-CAVE-DI-CUSA-234349746433/;6.0;3.0;Apertura alle 9,00. Dall'1/03 chiusura ore 17,00 (uscita entro le 18,00). Dal 26/03 chiusura ore 18,00 (uscita entro le 19).;http://gis.osservatorioturistico.sicilia.it/doc/testi/schede_archeo/Selinunte_tempiod.pdf;http://gis.osservatorioturistico.sicilia.it/doc/foto/archeo/ico/Selinunte_tempiod.jpg;;http://gis.osservatorioturistico.sicilia.it/doc/testi/schede_archeo/Selinunte_tempiod_eng.pdf
Castelvetrano;12.825014;37.585867;Mura dell'acropoli e fortificazione di Porta Nord;Marinella di Selinunte - Via Selinunte;Parco archeologico di Selinunte e Cave di Cusa;http://www.regione.sicilia.it/beniculturali/dirbenicult/database/page_musei/pagina_musei.asp?ID=121&IdSito=0&IdC=2436&IdS=30&IdAS=120;ellenistica;Fortificazioni;Pagamento ingresso alle aree del Parco: contanti e POS allo sportello della biglietteria, bonifico bancario.;092446277;parco.archeo.selinunte@regione.sicilia.it;https://www.facebook.com/PARCO-ARCHEOLOGICO-DI-SELINUNTE-E-CAVE-DI-CUSA-234349746433/;6.0;3.0;Apertura alle 9,00. Dall'1/03 chiusura ore 17,00 (uscita entro le 18,00). Dal 26/03 chiusura ore 18,00 (uscita entro le 19).;http://gis.osservatorioturistico.sicilia.it/doc/testi/schede_archeo/Selinunte_mura.pdf;http://gis.osservatorioturistico.sicilia.it/doc/foto/archeo/ico/Selinunte_mura.jpg;;http://gis.osservatorioturistico.sicilia.it/doc/testi/schede_archeo/Selinunte_mura_eng.pdf
Castelvetrano;12.817729;37.586222;Tempio di Hera;Marinella di Selinunte - Via Selinunte;Parco archeologico di Selinunte e Cave di Cusa;http://www.regione.sicilia.it/beniculturali/dirbenicult/database/page_musei/pagina_musei.asp?ID=121&IdSito=0&IdC=2436&IdS=30&IdAS=120;"arcaica; classica";Tempio;Pagamento ingresso alle aree del Parco: contanti e POS allo sportello della biglietteria, bonifico bancario.;092446277;parco.archeo.selinunte@regione.sicilia.it;https://www.facebook.com/PARCO-ARCHEOLOGICO-DI-SELINUNTE-E-CAVE-DI-CUSA-234349746433/;6.0;3.0;Apertura alle 9,00. Dall'1/03 chiusura ore 17,00 (uscita entro le 18,00). Dal 26/03 chiusura ore 18,00 (uscita entro le 19).;http://gis.osservatorioturistico.sicilia.it/doc/testi/schede_archeo/Selinunte_tempiohera.pdf;http://gis.osservatorioturistico.sicilia.it/doc/foto/archeo/ico/Selinunte_tempiohera.jpg;;http://gis.osservatorioturistico.sicilia.it/doc/testi/schede_archeo/Selinunte_tempiohera_eng.pdf
Castelvetrano;12.817022;37.586797;Santuario della Malophoros;Marinella di Selinunte - Via Selinunte;Parco archeologico di Selinunte e Cave di Cusa;http://www.regione.sicilia.it/beniculturali/dirbenicult/database/page_musei/pagina_musei.asp?ID=121&IdSito=0&IdC=2436&IdS=30&IdAS=120;"arcaica; classica";Santuario;Pagamento ingresso alle aree del Parco: contanti e POS allo sportello della biglietteria, bonifico bancario.;092446277;parco.archeo.selinunte@regione.sicilia.it;https://www.facebook.com/PARCO-ARCHEOLOGICO-DI-SELINUNTE-E-CAVE-DI-CUSA-234349746433/;6.0;3.0;Apertura alle 9,00. Dall'1/03 chiusura ore 17,00 (uscita entro le 18,00). Dal 26/03 chiusura ore 18,00 (uscita entro le 19).;http://gis.osservatorioturistico.sicilia.it/doc/testi/schede_archeo/Selinunte_malophoros.pdf;http://gis.osservatorioturistico.sicilia.it/doc/foto/archeo/ico/Selinunte_malophoros.jpg;;http://gis.osservatorioturistico.sicilia.it/doc/testi/schede_archeo/Selinunte_malophoros_eng.pdf
Castelvetrano;12.815418;37.589433;Tempio M;Marinella di Selinunte - Via Selinunte;Parco archeologico di Selinunte e Cave di Cusa;http://www.regione.sicilia.it/beniculturali/dirbenicult/database/page_musei/pagina_musei.asp?ID=121&IdSito=0&IdC=2436&IdS=30&IdAS=120;arcaica;Tempio;Pagamento ingresso alle aree del Parco: contanti e POS allo sportello della biglietteria, bonifico bancario.;092446277;parco.archeo.selinunte@regione.sicilia.it;https://www.facebook.com/PARCO-ARCHEOLOGICO-DI-SELINUNTE-E-CAVE-DI-CUSA-234349746433/;6.0;3.0;Apertura alle 9,00. Dall'1/03 chiusura ore 17,00 (uscita entro le 18,00). Dal 26/03 chiusura ore 18,00 (uscita entro le 19).;http://gis.osservatorioturistico.sicilia.it/doc/testi/schede_archeo/Selinunte_tempiom.pdf;http://gis.osservatorioturistico.sicilia.it/doc/foto/archeo/ico/Selinunte_tempiom.jpg;;http://gis.osservatorioturistico.sicilia.it/doc/testi/schede_archeo/Selinunte_tempiom_eng.pdf
Castelvetrano;12.834884;37.586594;Tempio E;Marinella di Selinunte - Via Selinunte;Parco archeologico di Selinunte e Cave di Cusa;http://www.regione.sicilia.it/beniculturali/dirbenicult/database/page_musei/pagina_musei.asp?ID=121&IdSito=0&IdC=2436&IdS=30&IdAS=120;classica;Tempio;Pagamento ingresso alle aree del Parco: contanti e POS allo sportello della biglietteria, bonifico bancario.;092446277;parco.archeo.selinunte@regione.sicilia.it;https://www.facebook.com/PARCO-ARCHEOLOGICO-DI-SELINUNTE-E-CAVE-DI-CUSA-234349746433/;6.0;3.0;Apertura alle 9,00. Dall'1/03 chiusura ore 17,00 (uscita entro le 18,00). Dal 26/03 chiusura ore 18,00 (uscita entro le 19).;http://gis.osservatorioturistico.sicilia.it/doc/testi/schede_archeo/Selinunte_tempioe.pdf;http://gis.osservatorioturistico.sicilia.it/doc/foto/archeo/ico/Selinunte_tempioe.jpg;;http://gis.osservatorioturistico.sicilia.it/doc/testi/schede_archeo/Selinunte_tempioe_eng.pdf
Castelvetrano;12.834939;37.587273;Tempio F;Marinella di Selinunte - Via Selinunte;Parco archeologico di Selinunte e Cave di Cusa;http://www.regione.sicilia.it/beniculturali/dirbenicult/database/page_musei/pagina_musei.asp?ID=121&IdSito=0&IdC=2436&IdS=30&IdAS=120;arcaica;Tempio;Pagamento ingresso alle aree del Parco: contanti e POS allo sportello della biglietteria, bonifico bancario.;092446277;parco.archeo.selinunte@regione.sicilia.it;https://www.facebook.com/PARCO-ARCHEOLOGICO-DI-SELINUNTE-E-CAVE-DI-CUSA-234349746433/;6.0;3.0;Apertura alle 9,00. Dall'1/03 chiusura ore 17,00 (uscita entro le 18,00). Dal 26/03 chiusura ore 18,00 (uscita entro le 19).;http://gis.osservatorioturistico.sicilia.it/doc/testi/schede_archeo/Selinunte_tempiof.pdf;http://gis.osservatorioturistico.sicilia.it/doc/foto/archeo/ico/Selinunte_tempiof.jpg;;http://gis.osservatorioturistico.sicilia.it/doc/testi/schede_archeo/Selinunte_tempiof_eng.pdf
Castelvetrano;12.834961;37.588184;Tempio G;Marinella di Selinunte - Via Selinunte;Parco archeologico di Selinunte e Cave di Cusa;http://www.regione.sicilia.it/beniculturali/dirbenicult/database/page_musei/pagina_musei.asp?ID=121&IdSito=0&IdC=2436&IdS=30&IdAS=120;"arcaica; classica";Tempio;Pagamento ingresso alle aree del Parco: contanti e POS allo sportello della biglietteria, bonifico bancario.;092446277;parco.archeo.selinunte@regione.sicilia.it;https://www.facebook.com/PARCO-ARCHEOLOGICO-DI-SELINUNTE-E-CAVE-DI-CUSA-234349746433/;6.0;3.0;Apertura alle 9,00. Dall'1/03 chiusura ore 17,00 (uscita entro le 18,00). Dal 26/03 chiusura ore 18,00 (uscita entro le 19).;http://gis.osservatorioturistico.sicilia.it/doc/testi/schede_archeo/Selinunte_tempiog.pdf;http://gis.osservatorioturistico.sicilia.it/doc/foto/archeo/ico/Selinunte_tempiog.jpg;;http://gis.osservatorioturistico.sicilia.it/doc/testi/schede_archeo/Selinunte_tempiog_eng.pdf
Giardini Naxos;15.269726;37.819178;Fornaci;Lungomare Schisò;Parco archeologico di Naxos-Taormina;http://www.parconaxostaormina.it/it/naxos;"arcaica; classica";Struttura industriale;http://www.regione.sicilia.it/beniculturali/Dirbenicult/database/page_musei/Orario%20di%20fruizione%20Siti%20Parco%20di%20Naxos.pdf;094251001 - 0942628738;parco.archeo.naxos@regione.sicilia.it , urp.parco.archeo.naxos@regione.sicilia.it;https://www.facebook.com/urp.parco.archeo.naxos/?ref=page_internal;4.0;2.0;Aperto tutti i giorni dalle 9.00 ad un'ora prima del tramonto;http://gis.osservatorioturistico.sicilia.it/doc/testi/schede_archeo/Naxos_fornaci.pdf;http://gis.osservatorioturistico.sicilia.it/doc/foto/archeo/ico/Naxos_fornaci.jpg;;http://gis.osservatorioturistico.sicilia.it/doc/testi/schede_archeo/Naxos_fornaci_eng.pdf
Giardini Naxos;15.269364;37.81924;Santuario di Era;Lungomare Schisò;Parco archeologico di Naxos-Taormina;http://www.parconaxostaormina.it/it/naxos;arcaica;Tempio;http://www.regione.sicilia.it/beniculturali/Dirbenicult/database/page_musei/Orario%20di%20fruizione%20Siti%20Parco%20di%20Naxos.pdf;094251001 - 0942628738;parco.archeo.naxos@regione.sicilia.it , urp.parco.archeo.naxos@regione.sicilia.it;https://www.facebook.com/urp.parco.archeo.naxos/?ref=page_internal;4.0;2.0;Aperto tutti i giorni dalle 9.00 ad un'ora prima del tramonto;http://gis.osservatorioturistico.sicilia.it/doc/testi/schede_archeo/Naxos_santuarioera.pdf;http://gis.osservatorioturistico.sicilia.it/doc/foto/archeo/ico/Naxos_santuarioera.jpg;;http://gis.osservatorioturistico.sicilia.it/doc/testi/schede_archeo/Naxos_santuarioera_eng.pdf
Giardini Naxos;15.270948;37.820831;Case protoarcaiche;Lungomare Schisò;Parco archeologico di Naxos-Taormina;http://www.parconaxostaormina.it/it/naxos;arcaica;Abitato;http://www.regione.sicilia.it/beniculturali/Dirbenicult/database/page_musei/Orario%20di%20fruizione%20Siti%20Parco%20di%20Naxos.pdf;094251001 - 0942628738;parco.archeo.naxos@regione.sicilia.it , urp.parco.archeo.naxos@regione.sicilia.it;https://www.facebook.com/urp.parco.archeo.naxos/?ref=page_internal;4.0;2.0;Aperto tutti i giorni dalle 9.00 ad un'ora prima del tramonto;http://gis.osservatorioturistico.sicilia.it/doc/testi/schede_archeo/Naxos_caseprotoarcaiche.pdf;http://gis.osservatorioturistico.sicilia.it/doc/foto/archeo/ico/Naxos_caseprotoarcaiche.jpg;;http://gis.osservatorioturistico.sicilia.it/doc/testi/schede_archeo/Naxos_caseprotoarcaiche_eng.pdf
Giardini Naxos;15.270792;37.82341;Neoria;Lungomare Schisò;Parco archeologico di Naxos-Taormina;http://www.parconaxostaormina.it/it/naxos;"arcaica; classica";Struttura portuale;http://www.regione.sicilia.it/beniculturali/Dirbenicult/database/page_musei/Orario%20di%20fruizione%20Siti%20Parco%20di%20Naxos.pdf;094251001 - 0942628738;parco.archeo.naxos@regione.sicilia.it , urp.parco.archeo.naxos@regione.sicilia.it;https://www.facebook.com/urp.parco.archeo.naxos/?ref=page_internal;4.0;2.0;Aperto tutti i giorni dalle 9.00 ad un'ora prima del tramonto;http://gis.osservatorioturistico.sicilia.it/doc/testi/schede_archeo/Naxos_neoria.pdf;http://gis.osservatorioturistico.sicilia.it/doc/foto/archeo/ico/Naxos_neoria.jpg;;http://gis.osservatorioturistico.sicilia.it/doc/testi/schede_archeo/Naxos_neoria_eng.pdf
Giardini Naxos;15.268309;37.822931;Isolato di V sec. a.C.;Lungomare Schisò;Parco archeologico di Naxos-Taormina;http://www.parconaxostaormina.it/it/naxos;classica;"Casa; Abitato";http://www.regione.sicilia.it/beniculturali/Dirbenicult/database/page_musei/Orario%20di%20fruizione%20Siti%20Parco%20di%20Naxos.pdf;094251001 - 0942628738;parco.archeo.naxos@regione.sicilia.it , urp.parco.archeo.naxos@regione.sicilia.it;https://www.facebook.com/urp.parco.archeo.naxos/?ref=page_internal;4.0;2.0;Aperto tutti i giorni dalle 9.00 ad un'ora prima del tramonto;http://gis.osservatorioturistico.sicilia.it/doc/testi/schede_archeo/Naxos_isolato5sec.pdf;http://gis.osservatorioturistico.sicilia.it/doc/foto/archeo/ico/Naxos_isolato5sec.jpg;;http://gis.osservatorioturistico.sicilia.it/doc/testi/schede_archeo/Naxos_isolato5sec_eng.pdf
Giardini Naxos;15.270881;37.823191;Casa a Pastas;Lungomare Schisò;Parco archeologico di Naxos-Taormina;http://www.parconaxostaormina.it/it/naxos;arcaica;Casa;http://www.regione.sicilia.it/beniculturali/Dirbenicult/database/page_musei/Orario%20di%20fruizione%20Siti%20Parco%20di%20Naxos.pdf;094251001 - 0942628738;parco.archeo.naxos@regione.sicilia.it , urp.parco.archeo.naxos@regione.sicilia.it;https://www.facebook.com/urp.parco.archeo.naxos/?ref=page_internal;4.0;2.0;Aperto tutti i giorni dalle 9.00 ad un'ora prima del tramonto;http://gis.osservatorioturistico.sicilia.it/doc/testi/schede_archeo/Naxos_pastas.pdf;http://gis.osservatorioturistico.sicilia.it/doc/foto/archeo/ico/Naxos_pastas.jpg;;http://gis.osservatorioturistico.sicilia.it/doc/testi/schede_archeo/Naxos_pastas_eng.pdf
Cefalù;14.024371;38.037622;Tempio di Diana;Rocca;Area archeologica di Cefalù;http://www.comune.cefalu.pa.it/comune/Citta/TempioDiana3D.aspx;"protostorica; classica; ellenistica";Tempio;;;nan;;0.0;0.0;;http://gis.osservatorioturistico.sicilia.it/doc/testi/schede_archeo/Cefalu_diana.pdf;http://gis.osservatorioturistico.sicilia.it/doc/foto/archeo/ico/Cefalu_diana.jpg;;http://gis.osservatorioturistico.sicilia.it/doc/testi/schede_archeo/Cefalu_diana_eng.pdf
Cefalù;14.021319;38.041109;Mura di fortificazione;Discesa a mare da via Carlo Ortolani di Bordonaro;Area archeologica di Cefalù;http://cefaluguide.it/item/mura-megalitiche/;ellenistica;Fortificazioni;;;nan;;0.0;0.0;;http://gis.osservatorioturistico.sicilia.it/doc/testi/schede_archeo/Cefalu_mura.pdf;http://gis.osservatorioturistico.sicilia.it/doc/foto/archeo/ico/Cefalu_mura.jpg;;http://gis.osservatorioturistico.sicilia.it/doc/testi/schede_archeo/Cefalu_mura_eng.pdf
Cefalù;14.022685;38.039841;Cefalù;;Area archeologica di Cefalù;http://www.comune.cefalu.pa.it/comune/Citta/Storia.aspx;"ellenistica; romana";Insediamento;;;nan;;Non Disponibile;Non Disponibile;;http://gis.osservatorioturistico.sicilia.it/doc/testi/schede_archeo/Cefalu.pdf;http://gis.osservatorioturistico.sicilia.it/doc/foto/archeo/ico/Cefalu.jpg;;http://gis.osservatorioturistico.sicilia.it/doc/testi/schede_archeo/Cefalu_eng.pdf
Piazza Armerina;14.334292;37.364664;Ingresso ad arco;Contrada Casale;Parco archeologico della Villa romana del Casale;http://www.villaromanadelcasale.it/la-villa-romana-del-casale2/;"romana; tardo antica; medievale";Villa;Vendita biglietti ridotti e cumulativi di due o tre siti tra: Area di Morgantina, Museo di Aidone e Villa del Casale.;0935680036;nan;;10.0;5.0;Dal 28 ottobre aperta ogni giorno, compresi i festivi, dalle 9,00 alle 16,00 (chiusura dei cancelli alle 17.00).;http://gis.osservatorioturistico.sicilia.it/doc/testi/schede_archeo/Casale_ingressoarco.pdf;http://gis.osservatorioturistico.sicilia.it/doc/foto/archeo/ico/Casale_ingressoarco.jpg;D.M. del 29.08.1951 conv D.P.R.S. del 21.01.1966;http://gis.osservatorioturistico.sicilia.it/doc/testi/schede_archeo/Casale_ingressoarco_eng.pdf
Piazza Armerina;14.334705;37.364867;Grande peristilio;Contrada Casale;Parco archeologico della Villa romana del Casale;http://www.villaromanadelcasale.it/la-villa-romana-del-casale2/;"romana; tardo antica; medievale";Villa;Vendita biglietti ridotti e cumulativi di due o tre siti tra: Area di Morgantina, Museo di Aidone e Villa del Casale.;0935680036;nan;;10.0;5.0;Dal 28 ottobre aperta ogni giorno, compresi i festivi, dalle 9,00 alle 16,00 (chiusura dei cancelli alle 17.00).;http://gis.osservatorioturistico.sicilia.it/doc/testi/schede_archeo/Casale_grandeperistilio.pdf;http://gis.osservatorioturistico.sicilia.it/doc/foto/archeo/ico/Casale_grandeperistilio.jpg;D.M. del 29.08.1951 conv D.P.R.S. del 21.01.1966;http://gis.osservatorioturistico.sicilia.it/doc/testi/schede_archeo/Casale_grandeperistilio_eng.pdf
Piazza Armerina;14.334228;37.364907;Terme;Contrada Casale;Parco archeologico della Villa romana del Casale;http://www.villaromanadelcasale.it/la-villa-romana-del-casale2/;"romana; tardo antica; medievale";"Villa; Terme";Vendita biglietti ridotti e cumulativi di due o tre siti tra: Area di Morgantina, Museo di Aidone e Villa del Casale.;0935680036;nan;;10.0;5.0;Dal 28 ottobre aperta ogni giorno, compresi i festivi, dalle 9,00 alle 16,00 (chiusura dei cancelli alle 17.00).;http://gis.osservatorioturistico.sicilia.it/doc/testi/schede_archeo/Casale_terme.pdf;http://gis.osservatorioturistico.sicilia.it/doc/foto/archeo/ico/Casale_terme.jpg;D.M. del 29.08.1951 conv D.P.R.S. del 21.01.1966;http://gis.osservatorioturistico.sicilia.it/doc/testi/schede_archeo/Casale_terme_eng.pdf
Piazza Armerina;14.335153;37.364944;Grande aula absidata;Contrada Casale;Parco archeologico della Villa romana del Casale;http://www.villaromanadelcasale.it/la-villa-romana-del-casale2/;"romana; tardo antica; medievale";Villa;Vendita biglietti ridotti e cumulativi di due o tre siti tra: Area di Morgantina, Museo di Aidone e Villa del Casale.;0935680036;nan;;10.0;5.0;Dal 28 ottobre aperta ogni giorno, compresi i festivi, dalle 9,00 alle 16,00 (chiusura dei cancelli alle 17.00).;http://gis.osservatorioturistico.sicilia.it/doc/testi/schede_archeo/Casale_absidata.pdf;http://gis.osservatorioturistico.sicilia.it/doc/foto/archeo/ico/Casale_absidata.jpg;D.M. del 29.08.1951 conv D.P.R.S. del 21.01.1966;http://gis.osservatorioturistico.sicilia.it/doc/testi/schede_archeo/Casale_absidata_eng.pdf
Piazza Armerina;14.334748;37.3645;Peristilio ovale;Contrada Casale;Parco archeologico della Villa romana del Casale;http://www.villaromanadelcasale.it/la-villa-romana-del-casale2/;"romana; tardo antica; medievale";Villa;Vendita biglietti ridotti e cumulativi di due o tre siti tra: Area di Morgantina, Museo di Aidone e Villa del Casale.;0935680036;nan;;10.0;5.0;Dal 28 ottobre aperta ogni giorno, compresi i festivi, dalle 9,00 alle 16,00 (chiusura dei cancelli alle 17.00).;http://gis.osservatorioturistico.sicilia.it/doc/testi/schede_archeo/Casale_ovaleperistilio.pdf;http://gis.osservatorioturistico.sicilia.it/doc/foto/archeo/ico/Casale_ovaleperistilio.jpg;D.M. del 29.08.1951 conv D.P.R.S. del 21.01.1966;http://gis.osservatorioturistico.sicilia.it/doc/testi/schede_archeo/Casale_ovaleperistilio_eng.pdf
Realmonte;13.487661;37.289819;Villa Romana di Durrueli;C.da Durrueli, via Nereo;Area archeologica di Realmonte;https://izi.travel/en/2e86-la-villa-romana-di-realmonte-in-contrada-durrueli/it;"ellenistica; imperiale";Villa;Sito recintato osservabile parzialmente dalla strada. Per informazioni chiedere Soprintendenza di Agrigento tel. 0922552611;0922552611;nan;;0.0;0.0;;http://gis.osservatorioturistico.sicilia.it/doc/testi/schede_archeo/Durrueli.pdf;http://gis.osservatorioturistico.sicilia.it/doc/foto/archeo/ico/Durrueli.jpg;;http://gis.osservatorioturistico.sicilia.it/doc/testi/schede_archeo/Durrueli_eng.pdf
Ustica;13.178034;38.70752;Ustica;;Isola;www.regione.sicilia.it/beniculturali/dirbenicult/musei/guide_brevi/Ustica%20(Guida%20Breve).pdf;"preistorica; imperiale";"Insediamento; Abitato";;;nan;;Non Disponibile;Non Disponibile;;http://gis.osservatorioturistico.sicilia.it/doc/testi/schede_archeo/Ustica.pdf;http://gis.osservatorioturistico.sicilia.it/doc/foto/archeo/ico/Ustica.jpg;;http://gis.osservatorioturistico.sicilia.it/doc/testi/schede_archeo/Ustica_eng.pdf
Terme Vigliatore;15.141793;38.127448;Villa Romana di San Biagio;Via Nazionale 3, località San Biagio;;http://www.regione.sicilia.it/beniculturali/dirbenicult/database/page_musei/pagina_musei.asp?ID=44&IdSito=51&IdC=&IdS=&IdAS=;;;;090 9740488;nan;;Non Disponibile;Non Disponibile;;http://gis.osservatorioturistico.sicilia.it/doc/testi/schede_archeo/villa_san_biagio.pdf;http://gis.osservatorioturistico.sicilia.it/doc/foto/archeo/ico/San_Biagio_ico.jpg;;http://gis.osservatorioturistico.sicilia.it/doc/testi/schede_archeo/villa_san_biagio_eng.pdf
Capo d'Orlando;14.766093;38.153586;Villa Romana di C.da Bagnoli, Capo d'Orlando;San Gregorio;;;III d.C.;;;;nan;;Non Disponibile;Non Disponibile;;http://gis.osservatorioturistico.sicilia.it/doc/testi/schede_archeo/bagnoli.pdf;http://gis.osservatorioturistico.sicilia.it/doc/foto/archeo/ico/bagnoli_ico.jpg;Archeologia a Capo D'Orlando - Umberto Spigo 2004;http://gis.osservatorioturistico.sicilia.it/doc/testi/schede_archeo/bagnoli_eng.pdf
S. Marina di Salina;14.874662;38.563268;Terme romane e fabbrica di salagione;C.da Barone, Punta Lamie;Parco archeologico delle Isole Eolie;http://www.salinando.it/musei,-siti-archeologici-e-biblioteche-salina/255-sito-archeologico-barone.html;imperiale;"Terme; Struttura industriale";;;nan;;0.0;0.0;;http://gis.osservatorioturistico.sicilia.it/doc/testi/schede_archeo/Salina_terme.pdf;http://gis.osservatorioturistico.sicilia.it/doc/foto/archeo/ico/Salina_terme.jpg;(parco in corso di definizione);http://gis.osservatorioturistico.sicilia.it/doc/testi/schede_archeo/Salina_terme_eng.pdf
S. Marina di Salina;14.869697;38.573277;Villaggio dell'età del Bronzo;C.da Portella;Parco archeologico delle Isole Eolie;http://www.luigibernabobrea.it/luoghi/salina.html;preistorica;Abitato;;;nan;;0.0;0.0;;http://gis.osservatorioturistico.sicilia.it/doc/testi/schede_archeo/Salina_villaggiobronzo.pdf;http://gis.osservatorioturistico.sicilia.it/doc/foto/archeo/ico/Salina_villaggiobronzo.jpg;(parco in corso di definizione);http://gis.osservatorioturistico.sicilia.it/doc/testi/schede_archeo/Salina_villaggiobronzo_eng.pdf
San Cipirrello - Monreale;13.197897;37.967553;Teatro;Contrada Perciana - Case D'Alia;Parco archeologico di Monte Iato;http://www.regione.sicilia.it/bbccaa/Dirbenicult/bca/L_Parchi/parco_jato.html;ellenistica;Teatro;Ultimo ingresso: area archeologica ore 14,00 - antiquarium 12,00. Lunedì chiusura.;0918577943;parco.archeo.iato@regione.sicilia.it;https://www.facebook.com/parco.iato/;0.0;0.0;"Area: da martedì a sabato 9,30 - 16,00; Antiquarium: da martedì a sabato 9,30 - 17,30. Domenica e festivi 9,30 - 13,30";http://gis.osservatorioturistico.sicilia.it/doc/testi/schede_archeo/Iato_teatro.pdf;http://gis.osservatorioturistico.sicilia.it/doc/foto/archeo/ico/Iato_teatro.jpg;;http://gis.osservatorioturistico.sicilia.it/doc/testi/schede_archeo/Iato_teatro_eng.pdf
San Cipirrello - Monreale;13.198146;37.967342;Agora;Contrada Perciana - Case D'Alia;Parco archeologico di Monte Iato;http://www.regione.sicilia.it/bbccaa/Dirbenicult/bca/L_Parchi/parco_jato.html;"ellenistica; romana";Area pubblica civile;Ultimo ingresso: area archeologica ore 14,00 - antiquarium 12,00. Lunedì chiusura.;0918577943;parco.archeo.iato@regione.sicilia.it;https://www.facebook.com/parco.iato/;0.0;0.0;"Area: da martedì a sabato 9,30 - 16,00; Antiquarium: da martedì a sabato 9,30 - 17,30. Domenica e festivi 9,30 - 13,30";http://gis.osservatorioturistico.sicilia.it/doc/testi/schede_archeo/Iato_agora.pdf;http://gis.osservatorioturistico.sicilia.it/doc/foto/archeo/ico/Iato_agora.jpg;;http://gis.osservatorioturistico.sicilia.it/doc/testi/schede_archeo/Iato_agora_eng.pdf
San Cipirrello - Monreale;13.195919;37.96721;Casa a peristilio;Contrada Perciana - Case D'Alia;Parco archeologico di Monte Iato;http://www.regione.sicilia.it/bbccaa/Dirbenicult/bca/L_Parchi/parco_jato.html;ellenistica;Casa;Ultimo ingresso: area archeologica ore 14,00 - antiquarium 12,00. Lunedì chiusura.;0918577943;parco.archeo.iato@regione.sicilia.it;https://www.facebook.com/parco.iato/;0.0;0.0;"Area: da martedì a sabato 9,30 - 16,00; Antiquarium: da martedì a sabato 9,30 - 17,30. Domenica e festivi 9,30 - 13,30";http://gis.osservatorioturistico.sicilia.it/doc/testi/schede_archeo/Iato_casaperistilio.pdf;http://gis.osservatorioturistico.sicilia.it/doc/foto/archeo/ico/Iato_peristilio.jpg;;http://gis.osservatorioturistico.sicilia.it/doc/testi/schede_archeo/Iato_casaperistilio_eng.pdf
San Cipirrello - Monreale;13.195725;37.967101;Tempio di Afrodite;Contrada Perciana - Case D'Alia;Parco archeologico di Monte Iato;http://www.regione.sicilia.it/bbccaa/Dirbenicult/bca/L_Parchi/parco_jato.html;arcaica;Tempio;Ultimo ingresso: area archeologica ore 14,00 - antiquarium 12,00. Lunedì chiusura.;0918577943;parco.archeo.iato@regione.sicilia.it;https://www.facebook.com/parco.iato/;0.0;0.0;"Area: da martedì a sabato 9,30 - 16,00; Antiquarium: da martedì a sabato 9,30 - 17,30. Domenica e festivi 9,30 - 13,30";http://gis.osservatorioturistico.sicilia.it/doc/testi/schede_archeo/Iato_afrodite.pdf;http://gis.osservatorioturistico.sicilia.it/doc/foto/archeo/ico/Iato_afrodite.jpg;;http://gis.osservatorioturistico.sicilia.it/doc/testi/schede_archeo/Iato_afrodite_eng.pdf
San Cipirrello - Monreale;13.196201;37.967189;Casa tardo-arcaica;Contrada Perciana - Case D'Alia;Parco archeologico di Monte Iato;http://www.regione.sicilia.it/bbccaa/Dirbenicult/bca/L_Parchi/parco_jato.html;arcaica;Casa;Ultimo ingresso: area archeologica ore 14,00 - antiquarium 12,00. Lunedì chiusura.;0918577943;parco.archeo.iato@regione.sicilia.it;https://www.facebook.com/parco.iato/;0.0;0.0;"Area: da martedì a sabato 9,30 - 16,00; Antiquarium: da martedì a sabato 9,30 - 17,30. Domenica e festivi 9,30 - 13,30";http://gis.osservatorioturistico.sicilia.it/doc/testi/schede_archeo/Iato_casatardoarcaica.pdf;http://gis.osservatorioturistico.sicilia.it/doc/foto/archeo/ico/Iato_tardoarcaica.jpg;;http://gis.osservatorioturistico.sicilia.it/doc/testi/schede_archeo/Iato_casatardoarcaica_eng.pdf
